placekey,poi_cbg,parent_placekey,location_name,brands,safegraph_brand_ids,store_id,top_category,sub_category,naics_code,open_hours,category_tags,latitude,longitude,street_address,city,region,postal_code,iso_country_code,opened_on,closed_on,tracking_closed_since,websites,phone_number,wkt_area_sq_meters
222-222@3x5-4j2-cqz,null,null,The Church of Jesus Christ of Latter day Saints,null,null,null,Religious Organizations,Religious Organizations,813110,"{""Thu"":[],""Sat"":[],""Tue"":[],""Sun"":[[""9:00"",""14:00""]],""Mon"":[],""Wed"":[],""Fri"":[]}",null,47.722601,-116.919083,1824 E 16th Ave,Post Falls,ID,83854,US,null,null,2019-07,[],+12083803142,1598
222-222@3x5-4n2-qmk,160550012001,null,The Church of Jesus Christ of Latter day Saints,null,null,null,Religious Organizations,Religious Organizations,813110,"{""Thu"":[],""Sat"":[],""Tue"":[],""Sun"":[[""8:30"",""15:00""]],""Mon"":[],""Wed"":[],""Fri"":[]}",Churches,47.702578,-116.781765,2801 N 4th St,Coeur D Alene,ID,83815,US,null,null,2019-07,"[""lds.org""]",null,2146
222-222@3x5-4n8-q9f,null,null,The Church of Jesus Christ of Latter day Saints,null,null,null,Religious Organizations,Religious Organizations,813110,null,"Churches,Non-profit",47.721095,-116.775691,5430 N 4th St,Coeur D Alene,ID,83815,US,null,null,2019-07,"[""lds.org""]",+12086643521,168
222-222@5w8-z7t-bc5,160599702001,null,The Church of Jesus Christ of Latter day Saints,null,null,null,Religious Organizations,Religious Organizations,813110,null,Churches,45.171196,-113.89175,400 S Daisy St,Salmon,ID,83467,US,null,null,2019-07,"[""lds.org""]",+12087563090,2842
222-222@5w9-hn5-qcq,null,null,The Church of Jesus Christ of Latter day Saints,null,null,null,Religious Organizations,Religious Organizations,813110,null,Churches,43.57606,-116.414069,3145 S Linder Rd,Meridian,ID,83642,US,null,null,2019-07,"[""lds.org""]",+12084010000,295
222-222@5w9-hn5-qcq,160010103131,null,The Church of Jesus Christ of Latter day Saints,null,null,null,Religious Organizations,Religious Organizations,813110,null,Churches,43.57606,-116.414069,3145 S Linder Rd,Meridian,ID,83642,US,null,null,2019-07,"[""lds.org""]",+12084010000,295
222-222@5w9-hrg-kpv,160270211001,null,The Church of Jesus Christ of Latter day Saints,null,null,null,Religious Organizations,Religious Organizations,813110,null,Churches,43.640712,-116.612525,18486 Middleton Rd,Caldwell,ID,83687,US,null,null,2019-07,[],+12084020150,1668
222-222@5w9-j4z-2rk,160270224002,null,The Church of Jesus Christ of Latter day Saints,null,null,null,Religious Organizations,Religious Organizations,813110,null,Churches,43.485129,-116.526088,7770 Makayla Dr,Nampa,ID,83686,US,null,null,2019-07,"[""lds.org""]",+12084619648,1236
222-222@5w9-j4z-2rk,null,null,The Church of Jesus Christ of Latter day Saints,null,null,null,Religious Organizations,Religious Organizations,813110,null,Churches,43.485129,-116.526088,7770 Makayla Dr,Nampa,ID,83686,US,null,null,2019-07,"[""lds.org""]",+12084619648,1236
222-222@5w9-j6p-p9z,160270210011,null,The Church of Jesus Christ of Latter day Saints,null,null,null,Religious Organizations,Religious Organizations,813110,null,Churches,43.619075,-116.683381,5622 S Montana Ave,Caldwell,ID,83607,US,null,null,2019-07,[],+12084539118,371
222-222@5w9-j7k-kj9,160270211001,null,The Church of Jesus Christ of Latter day Saints,null,null,null,Religious Organizations,Religious Organizations,813110,null,Churches,43.635246,-116.55771,8230 Ustick Rd,Nampa,ID,83687,US,null,null,2019-07,"[""lds.org""]",+12083759726,1236
222-222@5w9-j9m-jvz,null,null,The Church of Jesus Christ of Latter day Saints,null,null,null,Religious Organizations,Religious Organizations,813110,null,Churches,43.574251,-116.214918,2710 W Sunrise Rim Rd,Boise,ID,83705,US,null,null,2019-07,"[""lds.org""]",+12083439883,968
222-222@5w9-j9m-sdv,160010017004,null,The Church of Jesus Christ of Latter day Saints,null,null,null,Religious Organizations,Religious Organizations,813110,null,Churches,43.581137,-116.219321,3020 W Cherry Ln,Boise,ID,83705,US,null,null,2019-07,[],+12083192478,1321
222-222@5w9-jb6-rff,160010024102,null,The Church of Jesus Christ of Latter Day Saints,null,null,null,Religious Organizations,Religious Organizations,813110,null,Churches,43.64377,-116.284446,4249 N Milwaukee St,Boise,ID,83704,US,null,null,2019-07,"[""lds.org""]",+12083762181,378
222-222@5w9-jb8-2x5,160010019003,null,The Church of Jesus Christ of Latter day Saints,null,null,null,Religious Organizations,Religious Organizations,813110,"{""Thu"":[],""Sat"":[],""Tue"":[],""Sun"":[[""9:00"",""14:00""]],""Mon"":[],""Wed"":[],""Fri"":[]}",Churches,43.594339,-116.275249,1111 S Cole Rd,Boise,ID,83709,US,null,null,2019-07,"[""lds.org""]",+12083211520,2716
222-222@5w9-jbc-qxq,160010020003,null,The Church of Jesus Christ of Latter day Saints,null,null,null,Religious Organizations,Religious Organizations,813110,null,Churches,43.597478,-116.25454,701 S Curtis Rd,Boise,ID,83705,US,null,null,2019-07,"[""lds.org""]",+12083454676,1551
222-222@5w9-jc4-yjv,160010009001,null,The Church of Jesus Christ of Latter day Saints,null,null,null,Religious Organizations,Religious Organizations,813110,null,Churches,43.603055,-116.2059,1929 W University Dr,Boise,ID,83706,US,null,null,2019-07,"[""lds.org""]",+12083458775,946
222-222@5w9-tcj-skf,160759604003,null,The Church of Jesus Christ of Latter day Saints,null,null,null,Religious Organizations,Religious Organizations,813110,null,Churches,43.969289,-116.820117,202 S Plymouth Ave,New Plymouth,ID,83655,US,null,null,2019-07,"[""lds.org""]",+12082789290,178
222-222@5w9-thm-3wk,160759601005,null,The Church Of Jesus Christ Of Latter Day Saints,null,null,null,Religious Organizations,Religious Organizations,813110,null,Churches,44.068577,-116.913761,501 S Iowa Ave,Payette,ID,83661,US,null,null,2019-07,"[""lds.org""]",null,1971
222-222@5wc-cnw-t5f,160570051002,null,The Church of Jesus Christ of Latter day Saints,null,null,null,Religious Organizations,Religious Organizations,813110,null,Churches,46.73572,-117.038564,2600 W A St,Moscow,ID,83843,US,null,null,2019-07,"[""lds.org""]",+12088826896,2784
222-222@5wf-y6s-35z,160659503015,null,The Church of Jesus Christ of Latter day Saints,null,null,null,Religious Organizations,Religious Organizations,813110,null,Churches,43.818269,-111.791942,345 S 3rd W,Rexburg,ID,83440,US,null,null,2019-07,[],+12083565712,1449
222-222@5wf-y6v-grk,160659503022,null,The Church of Jesus Christ of Latter day Saints,null,null,null,Religious Organizations,Religious Organizations,813110,null,Churches,43.822045,-111.803957,700 Park St,Rexburg,ID,83440,US,null,null,2019-07,[],+12083566082,1941
222-222@5wf-zyt-rhq,160439703001,null,The Church of Jesus Christ of Latter day Saints,null,null,null,Religious Organizations,Religious Organizations,813110,null,Churches,43.967664,-111.680578,145 E 1st N,St. Anthony,ID,83445,US,null,null,2019-07,"[""lds.org""]",+12086247540,1281
222-222@5wg-3jm-fpv,null,null,Rigby 11th LDS Church,null,null,null,Religious Organizations,Religious Organizations,813110,null,Churches,43.641948,-111.94261,106 N 3800 E,Rigby,ID,83442,US,null,null,2019-07,"[""lds.org""]",+12087450360,2399
222-222@5wg-3zg-xwk,160199713023,null,The Church of Jesus Christ of Latter day Saints,null,null,null,Religious Organizations,Religious Organizations,813110,null,Churches,43.485614,-112.067226,1800 Stosich St,Idaho Falls,ID,83402,US,null,null,2019-07,"[""lds.org""]",+12085223421,575
222-222@5wg-42b-dd9,160199706012,null,The Church of Jesus Christ of Latter day Saints,null,null,null,Religious Organizations,Religious Organizations,813110,null,Churches,43.498016,-111.987174,2349 Virlow St,Idaho Falls,ID,83401,US,null,null,2019-07,[],+12085520804,2084
222-222@5wg-42s-psq,null,null,The Church of Jesus Christ of Latter day Saints,null,null,null,Religious Organizations,Religious Organizations,813110,null,Churches,43.511345,-112.042309,770 W Anderson St,Idaho Falls,ID,83402,US,null,null,2019-07,"[""lds.org""]",+12085292201,2618
222-222@5wg-42s-psq,160199712001,null,The Church of Jesus Christ of Latter day Saints,null,null,null,Religious Organizations,Religious Organizations,813110,null,Churches,43.511345,-112.042309,770 W Anderson St,Idaho Falls,ID,83402,US,null,null,2019-07,"[""lds.org""]",+12085292201,2618
222-222@5wg-42s-t7q,160199712003,null,The Church of Jesus Christ of Latter day Saints,null,null,null,Religious Organizations,Religious Organizations,813110,null,Churches,43.499859,-112.041345,1000 Memorial Dr,Idaho Falls,ID,83402,US,null,null,2019-07,"[""mormon.org""]",+12085227669,3680
222-222@5wg-43z-mrk,160199714003,null,The Church of Jesus Christ of Latter day Saints,null,null,null,Religious Organizations,Religious Organizations,813110,null,Churches,43.461127,-112.026946,375 Castlerock Ln,Idaho Falls,ID,83404,US,null,null,2019-07,"[""lds.org""]",+12085220975,228
222-222@5wg-5f9-xwk,160519603004,null,The Church of Jesus Christ of Latter day Saints,null,null,null,Religious Organizations,Religious Organizations,813110,null,Churches,43.674808,-111.919806,258 W 1st N,Rigby,ID,83442,US,null,null,2019-07,"[""lds.org""]",+12087456782,2776
222-222@5wg-5f9-xwk,160519603004,null,The Church of Jesus Christ of Latter day Saints,null,null,null,Religious Organizations,Religious Organizations,813110,null,Churches,43.674808,-111.919806,258 W 1st N,Rigby,ID,83442,US,null,null,2019-07,"[""lds.org""]",+12087456782,2776
222-222@5wg-5f9-xwk,160519603004,null,The Church of Jesus Christ of Latter day Saints,null,null,null,Religious Organizations,Religious Organizations,813110,null,Churches,43.674808,-111.919806,258 W 1st N,Rigby,ID,83442,US,null,null,2019-07,"[""lds.org""]",+12087456782,2776
222-222@5wg-5f9-xwk,160519603004,null,The Church of Jesus Christ of Latter day Saints,null,null,null,Religious Organizations,Religious Organizations,813110,null,Churches,43.674808,-111.919806,258 W 1st N,Rigby,ID,83442,US,null,null,2019-07,"[""lds.org""]",+12087456782,2776
222-222@5wg-5f9-xwk,160519603002,null,The Church of Jesus Christ of Latter day Saints,null,null,null,Religious Organizations,Religious Organizations,813110,null,Churches,43.674808,-111.919806,258 W 1st N,Rigby,ID,83442,US,null,null,2019-07,"[""lds.org""]",+12087456782,2776
222-222@5wg-5f9-xwk,160519603002,null,The Church of Jesus Christ of Latter day Saints,null,null,null,Religious Organizations,Religious Organizations,813110,null,Churches,43.674808,-111.919806,258 W 1st N,Rigby,ID,83442,US,null,null,2019-07,"[""lds.org""]",+12087456782,2776
222-222@5wg-5f9-xwk,160519603002,null,The Church of Jesus Christ of Latter day Saints,null,null,null,Religious Organizations,Religious Organizations,813110,null,Churches,43.674808,-111.919806,258 W 1st N,Rigby,ID,83442,US,null,null,2019-07,"[""lds.org""]",+12087456782,2776
222-222@5wg-5f9-xwk,160519603002,null,The Church of Jesus Christ of Latter day Saints,null,null,null,Religious Organizations,Religious Organizations,813110,null,Churches,43.674808,-111.919806,258 W 1st N,Rigby,ID,83442,US,null,null,2019-07,"[""lds.org""]",+12087456782,2776
222-222@5wg-5f9-zj9,160519603003,null,The Church of Jesus Christ of Latter day Saints,null,null,null,Religious Organizations,Religious Organizations,813110,null,Churches,43.669403,-111.924253,401 W 1st S,Rigby,ID,83442,US,null,null,2019-07,"[""lds.org""]",+12087457216,1946
222-222@5wg-5wg-8gk,160199705011,null,The Church of Jesus Christ of Latter day Saints,null,null,null,Religious Organizations,Religious Organizations,813110,null,Churches,43.477568,-111.933638,2200 Stafford Dr,Ammon,ID,83401,US,null,2022-08,2019-07,"[""lds.org""]",+12085241098,1589
222-222@5wg-5wv-x89,160199704021,null,The Church of Jesus Christ of Latter day Saints,null,null,null,Religious Organizations,Religious Organizations,813110,null,Churches,43.526746,-111.973145,3055 E Iona Rd,Idaho Falls,ID,83401,US,null,null,2019-07,"[""lds.org""]",+12085220991,874
222-222@5wq-rrw-kcq,160679701002,null,The Church of Jesus Christ of Latter day Saints,null,null,null,Religious Organizations,Religious Organizations,813110,null,Churches,42.597287,-113.782243,153 S 600 W,Paul,ID,83347,US,null,null,2019-07,"[""lds.org""]",+12084382014,1672
222-222@5wq-rsr-zs5,160679701002,null,The Church of Jesus Christ of Latter day Saints,null,null,null,Religious Organizations,Religious Organizations,813110,null,Churches,42.605575,-113.725099,97 S 300 W,Rupert,ID,83350,US,null,null,2019-07,"[""lds.org""]",+12084363026,530
222-222@5wq-s88-rc5,1603195z05001,null,The Church of Jesus Christ of Latter day Saints,null,null,null,Religious Organizations,Religious Organizations,813110,null,Churches,42.532001,-113.802768,1650 Occidental Ave,Burley,ID,83318,US,null,null,2019-07,[],+12086787561,872
222-222@5wq-s89-vzz,160319505002,null,The Church of Jesus Christ of Latter day Saints,null,null,null,Religious Organizations,Religious Organizations,813110,null,Churches,42.52516,-113.795341,2202 Oakley Ave,Burley,ID,83318,US,null,null,2019-07,"[""lds.org""]",+12086782638,2254
222-222@5wq-s8g-wx5,null,null,The Church of Jesus Christ of Latter day Saints,null,null,null,Religious Organizations,Religious Organizations,813110,null,Churches,42.431476,-113.862386,350 W 700 S,Burley,ID,83318,US,null,null,2019-07,"[""lds.org""]",+12086781189,1236
222-222@5wq-s8g-wx5,160319506001,null,The Church of Jesus Christ of Latter day Saints,null,null,null,Religious Organizations,Religious Organizations,813110,null,Churches,42.431476,-113.862386,350 W 700 S,Burley,ID,83318,US,null,null,2019-07,"[""lds.org""]",+12086781189,1236
222-222@5wq-sg2-hh5,160679704003,null,The Church of Jesus Christ of Latter day Saints,null,null,null,Religious Organizations,Religious Organizations,813110,null,Churches,42.624997,-113.687299,36 N 100 W,Rupert,ID,83350,US,null,null,2019-07,"[""lds.org""]",+12084369534,202
222-222@5wr-2cg-rkz,160539704002,null,The Church of Jesus Christ of Latter day Saints,null,null,null,Religious Organizations,Religious Organizations,813110,null,Churches,42.721781,-114.505665,825 E Avenue B,Jerome,ID,83338,US,null,null,2019-07,"[""lds.org""]",+12083244800,1585
222-222@5wr-7kw-4n5,160830007002,null,The Church of Jesus Christ of Latter day Saints,null,null,null,Religious Organizations,Religious Organizations,813110,null,Churches,42.587936,-114.488513,1470 Park View Dr,Twin Falls,ID,83301,US,null,null,2019-07,[],+12087332033,180
222-222@5wr-7m7-r8v,160830008004,222-223@5wr-7m7-r8v,The Church of Jesus Christ of Latter day Saints,null,null,null,Religious Organizations,Religious Organizations,813110,null,Churches,42.573256,-114.469075,600 Harrison St,Twin Falls,ID,83301,US,null,null,2019-07,[],+12087328097,4386
222-222@5wr-9zv-ffz,null,null,The Church of Jesus Christ of Latter day Saints,null,null,null,Religious Organizations,Religious Organizations,813110,null,Churches,42.808583,-112.370641,7860 S 5th Ave,Pocatello,ID,83204,US,null,2019-12,2019-07,"[""lds.org""]",+12082359711,1236
222-222@5wr-9zv-ffz,160050006001,null,The Church of Jesus Christ of Latter day Saints,null,null,null,Religious Organizations,Religious Organizations,813110,null,Churches,42.808583,-112.370641,7860 S 5th Ave,Pocatello,ID,83204,US,null,2019-12,2019-07,"[""lds.org""]",+12082359711,1236
222-222@5wr-bby-tsq,160119504005,null,The Church Of Jesus Christ Of Latter Day Saints,null,null,null,Religious Organizations,Religious Organizations,813110,null,Churches,43.174725,-112.347827,1289 Mount Putnam Dr,Blackfoot,ID,83221,US,null,null,2019-07,"[""lds.org""]",+12087850121,2611
222-222@5wr-bmm-7kf,160119504002,null,The Church of Jesus Christ of Latter day Saints,null,null,null,Religious Organizations,Religious Organizations,813110,null,Churches,43.189569,-112.330308,815 Mitchell Ln,Blackfoot,ID,83221,US,null,null,2019-07,"[""lds.org""]",+12087857108,405
222-222@5wr-cjk-9xq,null,null,Gray's Lake LDS Church,null,null,null,Religious Organizations,Religious Organizations,813110,null,Churches,43.033783,-111.3778,74 Grays Lake Rd,Wayan,ID,83285,US,null,null,2019-07,"[""lds.org""]",+12085742835,901
222-222@5wr-cjk-9xq,160199701001,null,Gray's Lake LDS Church,null,null,null,Religious Organizations,Religious Organizations,813110,null,Churches,43.033783,-111.3778,74 Grays Lake Rd,Wayan,ID,83285,US,null,null,2019-07,"[""lds.org""]",+12085742835,901
222-222@5wr-dd7-tqf,160119501004,zzw-222@5wr-dd8-6tv,The Church of Jesus Christ of Latter day Saints,null,null,null,Religious Organizations,Religious Organizations,813110,null,Churches,43.373926,-112.129635,510 W Fir St,Shelley,ID,83274,US,null,null,2019-07,"[""lds.org""]",+12083573470,389
222-222@5wr-dd7-tqf,null,zzw-222@5wr-dd8-6tv,The Church of Jesus Christ of Latter day Saints,null,null,null,Religious Organizations,Religious Organizations,813110,null,Churches,43.373926,-112.129635,510 W Fir St,Shelley,ID,83274,US,null,null,2019-07,"[""lds.org""]",+12083573470,389
222-222@5wr-dd8-7h5,160119501002,null,The Church of Jesus Christ of Latter day Saints,null,null,null,Religious Organizations,Religious Organizations,813110,null,Churches,43.373855,-112.12287,544 Seminary Ave,Shelley,ID,83274,US,null,null,2019-07,"[""lds.org""]",+12083575102,1207
222-222@5wr-fjt-c3q,160050019002,null,The Church of Jesus Christ of Latter day Saints,null,null,null,Religious Organizations,Religious Organizations,813110,null,Churches,42.581694,-112.18208,12651 S Old Highway 91,Arimo,ID,83214,US,null,null,2019-07,"[""lds.org""]",+12082543504,370
222-222@5wr-gc4-8sq,160119503002,null,The Church of Jesus Christ of Latter day Saints,null,null,null,Religious Organizations,Religious Organizations,813110,null,Churches,42.906803,-112.927605,3182 W 2000 S,Aberdeen,ID,83210,US,null,null,2019-07,"[""lds.org""]",+12083974088,343
222-222@5wr-gc4-8sq,null,null,The Church of Jesus Christ of Latter day Saints,null,null,null,Religious Organizations,Religious Organizations,813110,null,Churches,42.906803,-112.927605,3182 W 2000 S,Aberdeen,ID,83210,US,null,null,2019-07,"[""lds.org""]",+12083974088,343
222-222@5wr-ghc-54v,160050015002,null,The Church of Jesus Christ of Latter day Saints,null,null,null,Religious Organizations,Religious Organizations,813110,null,Churches,42.911758,-112.476567,4331 Hawthorne Rd,Pocatello,ID,83202,US,null,null,2019-07,"[""lds.org""]",+12082376181,244
222-222@5wr-ghc-54v,null,null,The Church of Jesus Christ of Latter day Saints,null,null,null,Religious Organizations,Religious Organizations,813110,null,Churches,42.911758,-112.476567,4331 Hawthorne Rd,Pocatello,ID,83202,US,null,null,2019-07,"[""lds.org""]",+12082376181,244
222-222@5wr-ghd-kxq,160050011011,null,The Church of Jesus Christ of Latter day Saints,null,null,null,Religious Organizations,Religious Organizations,813110,null,Churches,42.915369,-112.419094,2300 Butte St,Pocatello,ID,83201,US,null,null,2019-07,"[""lds.org""]",+12082372020,1907
222-222@5wr-gvh-m49,160779602002,null,The Church of Jesus Christ of Latter day Saints,null,null,null,Religious Organizations,Religious Organizations,813110,null,Churches,42.795748,-112.841245,111 Church Pl,American Falls,ID,83211,US,null,null,2019-07,"[""lds.org""]",+12082262951,2414
222-222@5wr-hfr-q75,160299602002,null,The Church of Jesus Christ of Latter day Saints,null,null,null,Religious Organizations,Religious Organizations,813110,null,Churches,42.650915,-111.594153,361 S 3rd E,Soda Springs,ID,83276,US,null,null,2019-07,[],+12085472551,1905
222-222@5ws-frz-pn5,160719601002,null,Church LDS First Ward,null,null,null,Religious Organizations,Religious Organizations,813110,null,Churches,42.20193,-112.266875,1250 N 1100 W,Malad City,ID,83252,US,null,null,2019-07,"[""lds.org""]",+12087664385,2386
222-222@5ws-hhd-zpv,null,null,The Church of Jesus Christ of Latter day Saints,null,null,null,Religious Organizations,Religious Organizations,813110,null,Churches,42.230853,-111.95055,7389 N 3000 W,Preston,ID,83263,US,null,null,2019-07,"[""lds.org""]",+12088522768,218
222-222@5ws-hhd-zpv,160419701005,null,The Church of Jesus Christ of Latter day Saints,null,null,null,Religious Organizations,Religious Organizations,813110,null,Churches,42.230853,-111.95055,7389 N 3000 W,Preston,ID,83263,US,null,null,2019-07,"[""lds.org""]",+12088522768,218
222-222@5ws-hht-2rk,160419701004,null,The Church of Jesus Christ of Latter day Saints,null,null,null,Religious Organizations,Religious Organizations,813110,null,Churches,42.111731,-111.994116,630 N Westside Hwy,Dayton,ID,83232,US,null,null,2019-07,"[""lds.org""]",+12087473393,1790
222-222@5ws-hyw-3qz,160419702002,null,The Church of Jesus Christ of Latter day Saints,null,null,null,Religious Organizations,Religious Organizations,813110,null,Churches,42.094745,-111.874965,55 W 1st S,Preston,ID,83263,US,null,null,2019-07,[],+12088523527,2599
222-223@3x5-4n2-qmk,null,null,null,null,null,null,null,null,null,null,null,null,null,null,null,null,null,null,null,null,null,null,null,null
222-223@5w9-hnk-xdv,null,null,The Church of Jesus Christ of Latter day Saints,null,null,null,Religious Organizations,Religious Organizations,813110,null,Churches,43.6228,-116.454625,1985 N Black Cat Rd,Meridian,ID,83634,US,null,null,2019-07,"[""lds.org""]",+12082881338,2424
222-223@5wf-zyt-rhq,null,null,null,null,null,null,null,null,null,null,null,null,null,null,null,null,null,null,null,null,null,null,null,null
222-223@5wj-fr7-6tv,null,null,The Church of Jesus Christ of Latter day Saints,null,null,null,Religious Organizations,Religious Organizations,813110,"{""Thu"":[],""Sat"":[],""Tue"":[],""Sun"":[[""8:00"",""17:00""]],""Mon"":[],""Wed"":[],""Fri"":[]}",null,46.480454,-116.252553,320 Michigan Ave,Orofino,ID,83544,US,null,null,2019-07,"[""comeuntochrist.org""]",+12084764357,523
222-223@5wq-s83-gc5,null,null,The Church of Jesus Christ of Latter day Saints,null,null,null,Religious Organizations,Religious Organizations,813110,null,Churches,42.558363,-113.792707,295 N Overland Ave,Burley,ID,83318,US,null,null,2019-07,[],+12086787855,2447
223-222@5qn-rzt-xbk,160079501003,null,The Church of Jesus Christ of Latter day Saints,null,null,null,Religious Organizations,Religious Organizations,813110,null,Churches,42.328977,-111.297209,364 Boise St,Montpelier,ID,83254,US,null,null,2019-07,"[""lds.org""]",+12088471867,461
223-222@5w9-hn5-zxq,160010103131,null,The Church Of Jesus Christ Of Latter Day Saints,null,null,null,Religious Organizations,Religious Organizations,813110,null,Churches,43.581535,-116.404514,2555 S Stoddard Rd,Meridian,ID,83642,US,null,null,2019-07,"[""churchofjesuschrist.org""]",+12088469468,1644
223-222@5w9-j9m-k2k,160010016002,null,The Church of Jesus Christ of Latter day Saints,null,null,null,Religious Organizations,Religious Organizations,813110,null,Churches,43.57379,-116.213619,3100 S Vista Ave Ste 300,Boise,ID,83705,US,null,null,2019-07,"[""lds.org""]",+12083439883,1043
223-222@5w9-j9m-k2k,null,null,The Church of Jesus Christ of Latter day Saints,null,null,null,Religious Organizations,Religious Organizations,813110,null,Churches,43.57379,-116.213619,3100 S Vista Ave Ste 300,Boise,ID,83705,US,null,null,2019-07,"[""lds.org""]",+12083439883,1043
223-222@5w9-yhr-nh5,160270215003,null,The Church of Jesus Christ of Latter day Saints,null,null,null,Religious Organizations,Religious Organizations,813110,null,Churches,43.660067,-116.68675,519 S 12th Ave,Caldwell,ID,83605,US,null,null,2019-07,"[""lds.org""]",+12084538331,1057
223-222@5w9-yht-n89,160270216003,null,The Church of Jesus Christ of Latter day Saints,null,null,null,Religious Organizations,Religious Organizations,813110,null,Churches,43.65428,-116.712138,1712 Emerald Ave,Caldwell,ID,83605,US,null,null,2019-07,[],+12084020135,296
223-222@5wf-y6r-zxq,160659502002,null,The Church of Jesus Christ of Latter day Saints,null,null,null,Religious Organizations,Religious Organizations,813110,null,Churches,43.824537,-111.7888,170 W 1st S,Rexburg,ID,83440,US,null,null,2019-07,[],+12083564137,1415
223-222@5wf-y6t-pd9,160659502003,null,The Church of Jesus Christ of Latter day Saints,null,null,null,Religious Organizations,Religious Organizations,813110,null,Churches,43.829787,-111.80072,590 Summerwood Dr,Rexburg,ID,83440,US,null,null,2019-07,[],+12083560350,2671
223-222@5wf-zxv-9cq,160439703005,null,The Church of Jesus Christ of Latter day Saints,null,null,null,Religious Organizations,Religious Organizations,813110,null,Churches,43.970891,-111.685618,449 N 2nd W,St. Anthony,ID,83445,US,null,null,2019-07,[],+12086244396,496
223-222@5wg-426-x89,160199707002,null,The Church of Jesus Christ of Latter day Saints,null,null,null,Religious Organizations,Religious Organizations,813110,null,Churches,43.498934,-112.020115,651 Gladstone St,Idaho Falls,ID,83401,US,null,null,2019-07,"[""lds.org""]",+12085221274,1306
223-222@5wg-5wg-d9z,160199705011,null,The Church of Jesus Christ of Latter day Saints,null,null,null,Religious Organizations,Religious Organizations,813110,null,Churches,43.482628,-111.947653,4363 E 17th St,Ammon,ID,83406,US,null,null,2019-07,[],+12085424551,2512
223-222@5wr-dpt-xwk,160199701003,null,The Church of Jesus Christ of Latter day Saints,null,null,null,Religious Organizations,Religious Organizations,813110,null,Churches,43.404267,-112.004022,10591 S 15th E,Idaho Falls,ID,83404,US,null,null,2019-07,"[""lds.org""]",+12085220584,1236
223-222@5wr-dpt-xwk,null,null,The Church of Jesus Christ of Latter day Saints,null,null,null,Religious Organizations,Religious Organizations,813110,null,Churches,43.404267,-112.004022,10591 S 15th E,Idaho Falls,ID,83404,US,null,null,2019-07,"[""lds.org""]",+12085220584,1236
223-222@5wr-ghb-sdv,160050011021,null,The Church of Jesus Christ of Latter day Saints,null,null,null,Religious Organizations,Religious Organizations,813110,null,Churches,42.895394,-112.435939,1169 Call Creek Dr,Pocatello,ID,83201,US,null,null,2019-07,[],+12082327780,386
223-222@5wr-ghb-sdv,null,null,The Church of Jesus Christ of Latter day Saints,null,null,null,Religious Organizations,Religious Organizations,813110,null,Churches,42.895394,-112.435939,1169 Call Creek Dr,Pocatello,ID,83201,US,null,null,2019-07,[],+12082327780,386
223-223@5w9-hwd-5mk,160010102252,null,The Church of Jesus Christ of Latter day Saints,null,null,null,Religious Organizations,Religious Organizations,813110,null,Churches,43.695074,-116.345195,700 E State St,Eagle,ID,83616,US,null,null,2019-07,[],+12089392988,522
224-222@5w9-j8t-y7q,160270209013,null,The Church of Jesus Christ of Latter day Saints,null,null,null,Religious Organizations,Religious Organizations,813110,null,Churches,43.524101,-116.560275,927 Ruth Ln,Nampa,ID,83686,US,null,null,2019-07,[],+12084619633,1658
224-222@5wg-3zd-8gk,160199711005,null,The Church of Jesus Christ of Latter day Saints,null,null,null,Religious Organizations,Religious Organizations,813110,null,Churches,43.485149,-112.039402,351 W 14th St,Idaho Falls,ID,83402,US,null,null,2019-07,"[""lds.org""]",+12085220231,1302
224-222@5wg-3zf-td9,160199713021,null,LDS Church,null,null,null,Religious Organizations,Religious Organizations,813110,null,Churches,43.493328,-112.07233,2040 Brentwood Dr,Idaho Falls,ID,83402,US,null,null,2019-07,"[""lds.org""]",+12085293987,2538
224-222@5wg-5wf-p7q,160199705011,null,The Church of Jesus Christ of Latter day Saints,null,null,null,Religious Organizations,Religious Organizations,813110,null,Churches,43.491955,-111.945348,4459 John Adams Pkwy,Ammon,ID,83406,US,null,null,2019-07,[],+12085280819,1686
224-222@5wr-2cf-zxq,null,null,The Church of Jesus Christ of Latter day Saints,null,null,null,Religious Organizations,Religious Organizations,813110,null,Churches,42.728168,-114.501215,506 N Tiger Dr,Jerome,ID,83338,US,null,null,2019-07,[],+12083242520,2680
224-222@5wr-7k4-mkz,null,null,The Church of Jesus Christ of Latter day Saints,null,null,null,Religious Organizations,Religious Organizations,813110,null,Churches,42.598074,-114.533453,2607 E 4128 N,Filer,ID,83328,US,null,null,2019-07,[],+12083264698,267
224-222@5wr-gfx-mc5,160050009002,null,The Church of Jesus Christ of Latter day Saints,null,null,null,Religious Organizations,Religious Organizations,813110,null,Churches,42.872142,-112.446127,650 N 7th Ave,Pocatello,ID,83201,US,null,null,2019-07,[],+12082340195,3810
224-222@5wr-ghb-bp9,160050012002,null,The Church of Jesus Christ of Latter day Saints,null,null,null,Religious Organizations,Religious Organizations,813110,null,Churches,42.896342,-112.448577,300 E Chapel Rd,Pocatello,ID,83201,US,null,null,2019-07,[],+12082370765,1639
224-223@5wg-3zf-td9,null,null,The Church of Jesus Christ of Latter day Saints,null,null,null,Religious Organizations,Religious Organizations,813110,null,Churches,43.493317,-112.072315,2040 Brentwood Dr,Idaho Falls,ID,83402,US,null,null,2019-07,"[""lds.org""]",+12085229872,2538
225-222@5w9-j9p-rff,160010018002,null,The Church of Jesus Christ of Latter day Saints,null,null,null,Religious Organizations,Religious Organizations,813110,null,Churches,43.581373,-116.240091,2320 S Lynx Way,Boise,ID,83705,US,null,null,2019-07,"[""lds.org""]",+12083446401,236
225-222@5wf-y57-85f,160659502001,null,The Church of Jesus Christ of Latter day Saints,null,null,null,Religious Organizations,Religious Organizations,813110,null,Churches,43.829794,-111.78058,166 N 1st E,Rexburg,ID,83440,US,null,null,2019-07,"[""lds.org""]",+12083565591,193
225-222@5wg-425-6rk,160199706022,null,The Church of Jesus Christ of Latter day Saints,null,null,null,Religious Organizations,Religious Organizations,813110,null,Churches,43.485443,-111.988204,1335 Ashment Ave,Idaho Falls,ID,83404,US,null,null,2019-07,[],+12085238662,512
225-222@5wg-427-p5f,160199711001,null,The Church of Jesus Christ of Latter day Saints,null,null,null,Religious Organizations,Religious Organizations,813110,null,Churches,43.491824,-112.024159,690 S Holmes Ave,Idaho Falls,ID,83401,US,null,null,2019-07,[],+12085224464,578
225-222@5wq-s82-wff,null,null,The Church of Jesus Christ of Latter day Saints,null,null,null,Religious Organizations,Religious Organizations,813110,null,Churches,42.550536,-113.793606,255 N Overland Ave,Burley,ID,83318,US,null,null,2019-07,"[""lds.org""]",+12086788200,132
225-222@5wr-gvd-59f,160779602003,null,The Church of Jesus Christ of Latter day Saints,null,null,null,Religious Organizations,Religious Organizations,813110,null,Churches,42.78473,-112.84687,650 Pocatello Ave,American Falls,ID,83211,US,null,null,2019-07,"[""lds.org""]",+12082265224,2225
225-222@5ws-j6t-cyv,null,null,The Church of Jesus Christ of Latter day Saints,null,null,null,Religious Organizations,Religious Organizations,813110,null,Churches,42.152542,-111.842844,1428 E 3200 N,Preston,ID,83263,US,null,null,2019-07,"[""lds.org""]",+12088522938,1236
226-222@5w8-kv7-kmk,null,null,Church of Jesus Christ of Latter Day Snts Cp Glnwd,null,null,null,Religious Organizations,Religious Organizations,813110,null,Churches,44.042688,-115.874903,459 Southfork Rd,Garden Valley,ID,83622,US,null,null,2019-07,[],+12084621911,1236
226-222@5w9-hvw-hbk,160010011001,null,The Church of Jesus Christ of Latter day Saints,null,null,null,Religious Organizations,Religious Organizations,813110,null,Churches,43.641812,-116.251294,604 E 46th St,Garden City,ID,83714,US,null,null,2019-07,"[""lds.org""]",+12083757893,3650
226-222@5w9-hvw-hbk,null,null,The Church of Jesus Christ of Latter day Saints,null,null,null,Religious Organizations,Religious Organizations,813110,null,Churches,43.641812,-116.251294,604 E 46th St,Garden City,ID,83714,US,null,null,2019-07,"[""lds.org""]",+12083757893,3650
226-222@5w9-jb9-73q,null,22c-222@5w9-jb9-6c5,The Church of Jesus Christ of Latter day Saints,null,null,null,Religious Organizations,Religious Organizations,813110,null,"Books,Churches",43.589243,-116.270867,7147 W Overland Rd,Boise,ID,83709,US,null,null,2019-07,[],+12083221855,3769
226-222@5wg-425-b8v,null,null,The Church of Jesus Christ of Latter day Saints,null,null,null,Religious Organizations,Religious Organizations,813110,null,Churches,43.492714,-112.002122,1600 John Adams Pkwy,Idaho Falls,ID,83401,US,null,null,2019-07,[],+12085295276,195
227-222@5w9-hm9-sqz,160010024104,null,The Church of Jesus Christ of Latter day Saints,null,null,null,Religious Organizations,Religious Organizations,813110,null,Churches,43.650028,-116.30488,4921 N Mitchell St,Boise,ID,83704,US,null,null,2019-07,"[""lds.org""]",+12083759618,1608
227-222@5w9-j9s-cqz,160010017003,null,The Church of Jesus Christ of Latter day Saints,null,null,null,Religious Organizations,Religious Organizations,813110,null,Churches,43.588759,-116.227105,3676 W Dorian St,Boise,ID,83705,US,null,null,2019-07,[],+12083383811,162
227-222@5w9-jbw-nwk,160010001001,null,The Church of Jesus Christ of Latter day Saints,null,null,null,Religious Organizations,Religious Organizations,813110,null,Churches,43.621474,-116.200962,924 W Franklin St,Boise,ID,83702,US,null,null,2019-07,"[""lds.org""]",+12083448998,268
227-222@5wg-42s-2c5,160199712002,null,The Church of Jesus Christ of Latter day Saints,null,null,null,Religious Organizations,Religious Organizations,813110,null,Churches,43.50432,-112.042134,750 W Elva St,Idaho Falls,ID,83402,US,null,null,2019-07,"[""lds.org""]",+12085299985,1054
227-222@5wr-ggq-cnq,160050011012,null,The Church of Jesus Christ of Latter day Saints,null,null,null,Religious Organizations,Religious Organizations,813110,null,Churches,42.901373,-112.425132,2000 S Fairway Dr,Pocatello,ID,83201,US,null,null,2019-07,"[""lds.org""]",+12082387149,1065
227-222@5wr-ggv-2rk,160050011011,null,The Church of Jesus Christ of Latter day Saints,null,null,null,Religious Organizations,Religious Organizations,813110,null,Churches,42.902787,-112.408905,2925 Michelle St,Pocatello,ID,83201,US,null,null,2019-07,"[""lds.org""]",+12082372161,1733
227-228@5wr-ghd-5xq,null,zzw-222@5wr-ghd-68v,The Church of Jesus Christ of Latter day Saints,null,null,null,Religious Organizations,Religious Organizations,813110,null,Churches,42.909202,-112.469589,4155 Yellowstone Ave,Chubbuck,ID,83202,US,null,null,2019-07,"[""lds.org""]",+12082381649,230
228-222@5w9-hvp-vj9,160010003042,null,The Church of Jesus Christ of Latter day Saints,null,null,null,Religious Organizations,Religious Organizations,813110,null,Churches,43.666107,-116.250036,5046 N Knollwood Ave,Boise,ID,83703,US,null,null,2019-07,"[""lds.org""]",+12083422112,223
228-222@5w9-j7q-73q,160270206026,null,The Church of Jesus Christ of Latter day Saints,null,null,null,Religious Organizations,Religious Organizations,813110,null,Churches,43.583495,-116.577054,142 Smith Ave,Nampa,ID,83651,US,null,null,2019-07,[],+12084672312,154
228-222@5w9-j7q-73q,160270206024,null,The Church of Jesus Christ of Latter day Saints,null,null,null,Religious Organizations,Religious Organizations,813110,null,Churches,43.583495,-116.577054,142 Smith Ave,Nampa,ID,83651,US,null,null,2019-07,[],+12084672312,154
228-222@5w9-j7q-73q,160270206011,null,The Church of Jesus Christ of Latter day Saints,null,null,null,Religious Organizations,Religious Organizations,813110,null,Churches,43.583495,-116.577054,142 Smith Ave,Nampa,ID,83651,US,null,null,2019-07,[],+12084672312,154
228-222@5w9-jbc-rx5,160010020004,null,The Church of Jesus Christ of Latter day Saints,null,null,null,Religious Organizations,Religious Organizations,813110,null,Churches,43.598377,-116.258369,6180 W Cassia St,Boise,ID,83709,US,null,null,2019-07,"[""lds.org""]",+12083769080,479
228-222@5wg-42b-nt9,160199706013,null,The Church of Jesus Christ of Latter day Saints,null,null,null,Religious Organizations,Religious Organizations,813110,null,Churches,43.503008,-111.996822,1860 Kearney St,Idaho Falls,ID,83401,US,null,null,2019-07,"[""lds.org""]",+12085299805,2486
228-222@5ws-fs6-y7q,null,null,Church LDS Fourth Ward,null,null,null,Religious Organizations,Religious Organizations,813110,null,Churches,42.185043,-112.248836,20 S 100 W,Malad City,ID,83252,US,null,null,2019-07,[],+12087664137,1038
228-223@5w9-j69-xyv,null,null,The Church of Jesus Christ of Latter day Saints,null,null,null,Religious Organizations,Religious Organizations,813110,null,Churches,43.576124,-116.564776,504 11th Ave S,Nampa,ID,83651,US,null,null,2019-07,[],null,248
22d-222@5ws-hyw-c89,null,null,The Church of Jesus Christ of Latter day Saints,null,null,null,Religious Organizations,Religious Organizations,813110,null,Churches,42.100053,-111.882867,155 N 2nd W,Preston,ID,83263,US,null,null,2019-07,[],+12088521226,2029
zzw-222@3x5-4n2-qfz,null,null,null,null,null,null,null,null,null,null,null,null,null,null,null,null,null,null,null,null,null,null,null,null
zzw-222@3x5-4qf-89z,160550018003,null,The Church of Jesus Christ of Latter day Saints,null,null,null,Religious Organizations,Religious Organizations,813110,null,Churches,47.729966,-116.755869,2293 E Hanley Ave,Dalton Gardens,ID,83815,US,null,null,2019-07,"[""mormon.org""]",+12086641818,143
zzw-222@5qn-rfj-rhq,160079501004,null,The Church of Jesus Christ of Latter day Saints,null,null,null,Religious Organizations,Religious Organizations,813110,null,Churches,42.311239,-111.305432,485 S 7th St,Montpelier,ID,83254,US,null,null,2019-07,"[""lds.org""]",+12088470860,1712
zzw-222@5w9-hk8-bzf,160010103311,null,The Church of Jesus Christ of Latter day Saints,null,null,null,Religious Organizations,Religious Organizations,813110,null,Churches,43.654961,-116.37515,5555 N Locust Grove Rd,Meridian,ID,83646,US,null,null,2019-07,[],+12082881077,2627
zzw-222@5w9-hkc-qmk,160010103342,null,The Church of Jesus Christ of Latter day Saints,null,null,null,Religious Organizations,Religious Organizations,813110,null,Churches,43.612311,-116.418851,2040 W Pine Ave,Meridian,ID,83642,US,null,null,2019-07,[],+12083190611,520
zzw-222@5w9-hmg-pgk,160010102211,null,The Church of Jesus Christ of Latter day Saints,null,null,null,Religious Organizations,Religious Organizations,813110,null,Churches,43.705732,-116.404318,1133 N Park Ln,Eagle,ID,83616,US,null,null,2019-07,"[""lds.org""]",+12083192373,2528
zzw-222@5w9-hmj-dqf,160010102241,null,The Church of Jesus Christ of Latter day Saints,null,null,null,Religious Organizations,Religious Organizations,813110,null,Churches,43.714093,-116.353158,2090 N Eagle Rd,Eagle,ID,83616,US,null,null,2019-07,"[""lds.org""]",null,2757
zzw-222@5w9-hnk-9s5,160270211002,null,The Church of Jesus Christ of Latter day Saints,null,null,null,Religious Organizations,Religious Organizations,813110,null,Churches,43.611858,-116.515607,6111 Birch Ln,Nampa,ID,83687,US,null,null,2019-07,"[""lds.org""]",+12083180365,3076
zzw-222@5w9-hnw-qs5,160010103133,null,The Church of Jesus Christ of Latter day Saints,null,null,null,Religious Organizations,Religious Organizations,813110,null,Churches,43.587124,-116.372879,1902 S Locust Grove Rd,Meridian,ID,83642,US,null,null,2019-07,"[""lds.org""]",+12083192470,1741
zzw-222@5w9-hnz-649,160010103133,null,The Church of Jesus Christ of Latter day Saints,null,null,null,Religious Organizations,Religious Organizations,813110,null,Churches,43.587132,-116.373257,1950 S Locust Grove Rd,Meridian,ID,83642,US,null,null,2019-07,"[""lds.org""]",+12083192493,1752
zzw-222@5w9-hwb-vs5,160010102232,null,The Church of Jesus Christ of Latter day Saints,null,null,null,Religious Organizations,Religious Organizations,813110,null,Churches,43.681526,-116.300706,7200 Duncan Ln,Boise,ID,83714,US,null,null,2019-07,"[""lds.org""]",+12088537017,1674
zzw-222@5w9-j48-m49,160010103133,null,The Church of Jesus Christ of Latter day Saints,null,null,null,Religious Organizations,Religious Organizations,813110,null,Churches,43.560649,-116.373586,1695 E Amity Rd,Meridian,ID,83642,US,null,null,2019-07,"[""lds.org""]",+12088882787,1958
zzw-222@5w9-j4d-cwk,160010104011,null,The Church of Jesus Christ of Latter day Saints,null,null,null,Religious Organizations,Religious Organizations,813110,null,Churches,43.544278,-116.355191,6575 S Eagle Rd,Meridian,ID,83642,US,null,null,2019-07,"[""lds.org""]",+12083192468,2423
zzw-222@5w9-j8w-zcq,160270209012,null,The Church of Jesus Christ of Latter day Saints,null,null,null,Religious Organizations,Religious Organizations,813110,null,Churches,43.545993,-116.557002,1201 E Greenhurst Rd,Nampa,ID,83686,US,null,null,2019-07,"[""lds.org""]",+12084654452,343
zzw-222@5w9-jb5-xwk,160010012022,null,The Church of Jesus Christ of Latter day Saints,null,null,null,Religious Organizations,Religious Organizations,813110,null,Churches,43.626062,-116.265649,6767 W Northview St,Boise,ID,83704,US,null,null,2019-07,"[""lds.org""]",+12083774034,1898
zzw-222@5w9-jb8-5fz,160010019003,null,The Church of Jesus Christ of Latter day Saints,null,null,null,Religious Organizations,Religious Organizations,813110,"{""Thu"":[[""6:00"",""22:00""]],""Sat"":[[""6:00"",""22:00""]],""Tue"":[[""5:30"",""22:00""]],""Sun"":[],""Mon"":[],""Wed"":[[""6:00"",""22:00""]],""Fri"":[[""6:00"",""22:00""]]}",Churches,43.59357,-116.275204,1211 S Cole Rd,Boise,ID,83709,US,null,null,2019-07,"[""lds.org""]",+12083224422,3279
zzw-222@5w9-jbh-y35,160010007021,null,The Church of Jesus Christ of Latter day Saints,null,null,null,Religious Organizations,Religious Organizations,813110,null,Churches,43.598481,-116.164629,2290 E Warm Springs Ave,Boise,ID,83712,US,null,null,2019-07,[],+12083428381,2513
zzw-222@5w9-jbr-75z,160010008024,null,The Church of Jesus Christ of Latter day Saints,null,null,null,Religious Organizations,Religious Organizations,813110,null,Churches,43.570092,-116.177659,3555 S Coleridge Pl,Boise,ID,83706,US,null,null,2019-07,"[""lds.org""]",+12083623998,176
zzw-222@5w9-jby-2kz,160010002021,null,The Church of Jesus Christ of Latter day Saints,null,null,null,Religious Organizations,Religious Organizations,813110,null,Churches,43.648535,-116.221945,2680 W Hill Rd,Boise,ID,83702,US,null,null,2019-07,"[""lds.org""]",+12083190990,993
zzw-222@5w9-jct-x3q,160010022213,null,The Church of Jesus Christ of Latter day Saints,null,null,null,Religious Organizations,Religious Organizations,813110,null,Churches,43.570953,-116.274835,3550 S Cole Rd,Boise,ID,83709,US,null,null,2019-07,"[""lds.org""]",+12083621960,1555
zzw-222@5w9-pg2-649,160399604002,null,The Church of Jesus Christ of Latter day Saints,null,null,null,Religious Organizations,Religious Organizations,813110,null,Churches,43.105489,-115.718955,2358 SW Buckey Dr,Mountain Home,ID,83647,US,null,null,2019-07,"[""lds.org""]",+12088327976,1236
zzw-222@5w9-pg2-649,null,null,The Church of Jesus Christ of Latter day Saints,null,null,null,Religious Organizations,Religious Organizations,813110,null,Churches,43.105489,-115.718955,2358 SW Buckey Dr,Mountain Home,ID,83647,US,null,null,2019-07,"[""lds.org""]",+12088327976,1236
zzw-222@5w9-pvs-835,160399602004,null,The Church of Jesus Christ of Latter day Saints,null,null,null,Religious Organizations,Religious Organizations,813110,null,Churches,43.143473,-115.690327,1150 N 8th E,Mountain Home,ID,83647,US,null,null,2019-07,[],+12085873124,2000
zzw-222@5w9-th7-xwk,160759603001,null,The Church of Jesus Christ of Latter day Saints,null,null,null,Religious Organizations,Religious Organizations,813110,null,Churches,44.02569,-116.902758,2264 NE 16th St,Fruitland,ID,83619,US,null,null,2019-07,"[""lds.org""]",+12084523647,248
zzw-222@5w9-vmq-y35,160879703003,null,The Church of Jesus Christ of Latter day Saints,null,null,null,Religious Organizations,Religious Organizations,813110,null,Churches,44.26035,-116.977221,600 W Indianhead Rd,Weiser,ID,83672,US,null,null,2019-07,"[""lds.org""]",+12085492742,155
zzw-222@5wd-cs3-fxq,160699610002,null,The Church of Jesus Christ of Latter day Saints,null,null,null,Religious Organizations,Religious Organizations,813110,null,Churches,46.365338,-116.950074,3810 16th St,Lewiston,ID,83501,US,null,null,2019-07,"[""lds.org""]",+12087436111,1601
zzw-222@5wf-xy5-xh5,160519602001,null,The Church of Jesus Christ of Latter day Saints,null,null,null,Religious Organizations,Religious Organizations,813110,null,Churches,43.727135,-111.982524,690 N 3600 E,Menan,ID,83434,US,null,null,2019-07,[],+12087548851,2703
zzw-222@5wf-y56-gc5,160659501002,null,The Church of Jesus Christ of Latter day Saints,null,null,null,Religious Organizations,Religious Organizations,813110,null,Churches,43.840866,-111.769931,475 E 7th N,Rexburg,ID,83440,US,null,null,2019-07,[],+12083569546,1733
zzw-222@5wf-y6s-skf,160659503024,null,The Church of Jesus Christ of Latter day Saints,null,null,null,Religious Organizations,Religious Organizations,813110,null,Churches,43.817356,-111.794762,387 S 4th W,Rexburg,ID,83440,US,null,null,2019-07,[],+12083566971,1061
zzw-222@5wf-y6t-sqz,160659502002,null,The Church of Jesus Christ of Latter day Saints,null,null,null,Religious Organizations,Religious Organizations,813110,null,Churches,43.827307,-111.793788,Salem Ave,Rexburg,ID,83440,US,null,null,2019-07,[],+12083565643,183
zzw-222@5wf-zcn-tsq,160439702002,null,The Church of Jesus Christ of Latter day Saints,null,null,null,Religious Organizations,Religious Organizations,813110,null,Churches,44.072172,-111.441238,1032 Pine St,Ashton,ID,83420,US,null,null,2019-07,"[""lds.org""]",+12086523241,143
zzw-222@5wf-zcp-2x5,160439702003,null,The Church of Jesus Christ of Latter day Saints,null,null,null,Religious Organizations,Religious Organizations,813110,null,Churches,44.077517,-111.452263,513 N 2nd St,Ashton,ID,83420,US,null,null,2019-07,"[""lds.org""]",null,2428
zzw-222@5wf-zdf-435,160439703002,null,The Church of Jesus Christ of Latter day Saints,null,null,null,Religious Organizations,Religious Organizations,813110,null,Churches,43.998669,-111.577679,2904 E 800 N,Chester,ID,83421,US,null,null,2019-07,[],+12086244571,155
zzw-222@5wf-zxt-jvz,null,null,The Church of Jesus Christ of Latter day Saints,null,null,null,Religious Organizations,Religious Organizations,813110,null,Churches,43.974765,-111.682115,850 N Bridge St,St. Anthony,ID,83445,US,null,null,2019-07,[],+12086244819,447
zzw-222@5wf-zxt-jvz,160439703005,null,The Church of Jesus Christ of Latter day Saints,null,null,null,Religious Organizations,Religious Organizations,813110,null,Churches,43.974765,-111.682115,850 N Bridge St,St. Anthony,ID,83445,US,null,null,2019-07,[],+12086244819,447
zzw-222@5wf-zxv-bff,160439703004,null,The Church of Jesus Christ of Latter day Saints,null,null,null,Religious Organizations,Religious Organizations,813110,null,Churches,43.968618,-111.689911,507 W 2nd N,St. Anthony,ID,83445,US,null,null,2019-07,"[""lds.org""]",+12086243262,1398
zzw-222@5wf-zyt-p35,160439703001,null,The Church of Jesus Christ of Latter day Saints,null,null,null,Religious Organizations,Religious Organizations,813110,null,Churches,43.970965,-111.67867,247 E 4th N,Rexburg,ID,83440,US,null,null,2019-07,"[""lds.org""]",+12086244212,2484
zzw-222@5wf-zz4-hh5,160439702004,null,The Church of Jesus Christ of Latter day Saints,null,null,null,Religious Organizations,Religious Organizations,813110,null,Churches,43.887162,-111.670244,44 W Main St,Teton,ID,83451,US,null,null,2019-07,[],+12084584342,1959
zzw-222@5wg-3k2-5fz,160519602002,null,The Church of Jesus Christ of Latter day Saints,null,null,null,Religious Organizations,Religious Organizations,813110,null,Churches,43.695282,-112.012451,474 N 3450 E,Lewisville,ID,83431,US,null,null,2019-07,[],+12087540481,1760
zzw-222@5wg-3mb-6rk,160199703003,null,The Church of Jesus Christ of Latter day Saints,null,null,null,Religious Organizations,Religious Organizations,813110,null,Churches,43.590793,-111.974513,2967 E 105 N,Idaho Falls,ID,83401,US,null,null,2019-07,"[""lds.org""]",+12085229456,2672
zzw-222@5wg-3mc-hyv,160199703001,null,The Church of Jesus Christ of Latter day Saints,null,null,null,Religious Organizations,Religious Organizations,813110,null,Churches,43.607524,-112.023079,12448 N 5th,Idaho Falls,ID,83401,US,null,null,2019-07,"[""lds.org""]",+12085258410,1472
zzw-222@5wg-3nz-vzz,null,null,null,null,null,null,null,null,null,null,null,null,null,null,null,null,null,null,null,null,null,null,null,null
zzw-222@5wg-3zc-vzz,160199714001,null,The Church of Jesus Christ of Latter day Saints,null,null,null,Religious Organizations,Religious Organizations,813110,null,Churches,43.479416,-112.086989,2020 S Charlotte Dr,Idaho Falls,ID,83402,US,null,null,2019-07,"[""lds.org""]",+12085229713,2652
zzw-222@5wg-427-mc5,160199711001,null,The Church of Jesus Christ of Latter day Saints,null,null,null,Religious Organizations,Religious Organizations,813110,null,Churches,43.496298,-112.026586,395 2nd St,Idaho Falls,ID,83401,US,null,null,2019-07,"[""lds.org""]",+12085226951,1460
zzw-222@5wg-429-7h5,160199705011,null,The Church of Jesus Christ of Latter day Saints,null,null,null,Religious Organizations,Religious Organizations,813110,null,Churches,43.489732,-111.953833,4030 John Adams Pkwy,Ammon,ID,83406,US,null,null,2019-07,[],+12085241640,1670
zzw-222@5wg-43c-5cq,160119501001,null,The Church of Jesus Christ of Latter day Saints,null,null,null,Religious Organizations,Religious Organizations,813110,null,Churches,43.31038,-112.083427,792 N 1090 E,Shelley,ID,83274,US,null,null,2019-07,[],+12083575700,1763
zzw-222@5wg-43c-5cq,160119501001,null,The Church of Jesus Christ of Latter day Saints,null,null,null,Religious Organizations,Religious Organizations,813110,null,Churches,43.31038,-112.083427,792 N 1090 E,Shelley,ID,83274,US,null,null,2019-07,[],+12083575700,1763
zzw-222@5wg-43c-5cq,160119501001,null,The Church of Jesus Christ of Latter day Saints,null,null,null,Religious Organizations,Religious Organizations,813110,null,Churches,43.31038,-112.083427,792 N 1090 E,Shelley,ID,83274,US,null,null,2019-07,[],+12083575700,1763
zzw-222@5wg-43c-5cq,null,null,The Church of Jesus Christ of Latter day Saints,null,null,null,Religious Organizations,Religious Organizations,813110,null,Churches,43.31038,-112.083427,792 N 1090 E,Shelley,ID,83274,US,null,null,2019-07,[],+12083575700,1763
zzw-222@5wg-43c-5cq,null,null,The Church of Jesus Christ of Latter day Saints,null,null,null,Religious Organizations,Religious Organizations,813110,null,Churches,43.31038,-112.083427,792 N 1090 E,Shelley,ID,83274,US,null,null,2019-07,[],+12083575700,1763
zzw-222@5wg-43c-5cq,null,null,The Church of Jesus Christ of Latter day Saints,null,null,null,Religious Organizations,Religious Organizations,813110,null,Churches,43.31038,-112.083427,792 N 1090 E,Shelley,ID,83274,US,null,null,2019-07,[],+12083575700,1763
zzw-222@5wg-43c-5cq,160119502001,null,The Church of Jesus Christ of Latter day Saints,null,null,null,Religious Organizations,Religious Organizations,813110,null,Churches,43.31038,-112.083427,792 N 1090 E,Shelley,ID,83274,US,null,null,2019-07,[],+12083575700,1763
zzw-222@5wg-43c-5cq,160119502001,null,The Church of Jesus Christ of Latter day Saints,null,null,null,Religious Organizations,Religious Organizations,813110,null,Churches,43.31038,-112.083427,792 N 1090 E,Shelley,ID,83274,US,null,null,2019-07,[],+12083575700,1763
zzw-222@5wg-43c-5cq,160119502001,null,The Church of Jesus Christ of Latter day Saints,null,null,null,Religious Organizations,Religious Organizations,813110,null,Churches,43.31038,-112.083427,792 N 1090 E,Shelley,ID,83274,US,null,null,2019-07,[],+12083575700,1763
zzw-222@5wg-43w-zmk,160199714003,null,The Church of Jesus Christ of Latter day Saints,null,null,null,Religious Organizations,Religious Organizations,813110,null,Churches,43.45087,-112.042777,5255 S 5th W,Idaho Falls,ID,83404,US,null,null,2019-07,"[""lds.org""]",+12085292962,1796
zzw-222@5wg-43x-b49,160199714002,null,The Church of Jesus Christ of Latter day Saints,null,null,null,Religious Organizations,Religious Organizations,813110,null,Churches,43.438791,-112.05918,1291 W 65th S,Idaho Falls,ID,83402,US,null,null,2019-07,"[""lds.org""]",+12085239180,1698
zzw-222@5wg-5bt-jjv,null,null,null,null,null,null,null,null,null,null,null,null,null,null,null,null,null,null,null,null,null,null,null,null
zzw-222@5wg-5d7-nt9,160659505002,null,The Church of Jesus Christ of Latter day Saints,null,null,null,Religious Organizations,Religious Organizations,813110,null,Churches,43.752835,-111.81894,2041 W 5200 S,Rexburg,ID,83440,US,null,null,2019-07,[],+12083560136,2492
zzw-222@5wg-5ty-vvf,160199703002,null,The Church of Jesus Christ of Latter day Saints,null,null,null,Religious Organizations,Religious Organizations,813110,null,Churches,43.593384,-111.950269,4330 Ilene Cir,Ammon,ID,83406,US,null,null,2019-07,"[""lds.org""]",+12085529819,1317
zzw-222@5wg-5vt-bhq,160199703004,null,The Church of Jesus Christ of Latter day Saints,null,null,null,Religious Organizations,Religious Organizations,813110,null,Churches,43.605379,-111.884918,12127 N 75th E,Idaho Falls,ID,83401,US,null,null,2019-07,"[""lds.org""]",+12085240563,1391
zzw-222@5wg-5wx-w6k,160199704022,null,Iona 10th LDS Church,null,null,null,Religious Organizations,Religious Organizations,813110,null,Churches,43.525634,-111.939505,4707 E Iona Rd,Iona,ID,83401,US,null,null,2019-07,"[""lds.org""]",+12085224770,1764
zzw-222@5wg-p9b-6tv,null,null,The Church of Jesus Christ of Latter day Saints,null,null,null,Religious Organizations,Religious Organizations,813110,null,Churches,44.519588,-111.321474,4120 N Big Springs Loop Rd,Island Park,ID,83429,US,null,null,2019-07,"[""lds.org""]",+12085580291,173
zzw-222@5wg-p9b-6tv,160439701001,null,The Church of Jesus Christ of Latter day Saints,null,null,null,Religious Organizations,Religious Organizations,813110,null,Churches,44.519588,-111.321474,4120 N Big Springs Loop Rd,Island Park,ID,83429,US,null,null,2019-07,"[""lds.org""]",+12085580291,173
zzw-222@5wh-bgx-59f,160799602005,null,The Church of Jesus Christ of Latter day Saints,null,null,null,Religious Organizations,Religious Organizations,813110,null,Churches,47.532396,-116.238233,605 S Division St,Pinehurst,ID,83850,US,null,null,2019-07,"[""lds.org""]",+12086822911,176
zzw-222@5wq-qvw-7bk,160319502002,null,The Church of Jesus Christ of Latter day Saints,null,null,null,Religious Organizations,Religious Organizations,813110,null,Churches,42.450829,-113.698624,554 S 490 E,Burley,ID,83318,US,null,null,2019-07,"[""lds.org""]",+12086780646,118
zzw-222@5wq-rr9-dsq,160679704003,zzw-223@5wq-rr9-dsq,The Church of Jesus Christ of Latter day Saints,null,null,null,Religious Organizations,Religious Organizations,813110,null,Churches,42.631197,-113.678694,1814 H St,Rupert,ID,83350,US,null,null,2019-07,"[""lds.org""]",+12084341421,5905
zzw-222@5wq-s83-g8v,160679702001,null,The Church of Jesus Christ of Latter day Saints,null,null,null,Religious Organizations,Religious Organizations,813110,null,Churches,42.557902,-113.792354,241 N Overland Ave,Burley,ID,83318,US,null,null,2019-07,"[""lds.org""]",+12086780434,954
zzw-222@5wq-s83-g8v,null,null,The Church of Jesus Christ of Latter day Saints,null,null,null,Religious Organizations,Religious Organizations,813110,null,Churches,42.557902,-113.792354,241 N Overland Ave,Burley,ID,83318,US,null,null,2019-07,"[""lds.org""]",+12086780434,954
zzw-222@5wq-s89-d35,null,null,The Church of Jesus Christ of Latter day Saints,null,null,null,Religious Organizations,Religious Organizations,813110,null,Churches,42.535657,-113.795357,224 W 14th St,Burley,ID,83318,US,null,null,2019-07,[],+12088787286,98
zzw-222@5wq-s89-d35,160319504003,null,The Church of Jesus Christ of Latter day Saints,null,null,null,Religious Organizations,Religious Organizations,813110,null,Churches,42.535657,-113.795357,224 W 14th St,Burley,ID,83318,US,null,null,2019-07,[],+12088787286,98
zzw-222@5wq-sg5-xkf,160679704002,null,The Church of Jesus Christ of Latter day Saints,null,null,null,Religious Organizations,Religious Organizations,813110,null,Churches,42.630676,-113.67619,618 18th St,Rupert,ID,83350,US,null,null,2019-07,"[""lds.org""]",+12084364446,238
zzw-222@5wq-zkm-gzf,160479601005,null,The Church of Jesus Christ of Latter day Saints,null,null,null,Religious Organizations,Religious Organizations,813110,null,Churches,42.932795,-114.712157,1228 Main St,Gooding,ID,83330,US,null,null,2019-07,[],+12089344812,1881
zzw-222@5wr-7g7-k9f,160830002002,null,The Church of Jesus Christ of Latter day Saints,null,null,null,Religious Organizations,Religious Organizations,813110,null,Churches,42.57626,-114.441426,847 Eastland Dr N,Twin Falls,ID,83301,US,null,null,2019-07,"[""lds.org""]",+12087339252,1856
zzw-222@5wr-7g7-z2k,160830002003,null,The Church of Jesus Christ of Latter day Saints,null,null,null,Religious Organizations,Religious Organizations,813110,null,Churches,42.568299,-114.453274,399 Maurice St N,Twin Falls,ID,83301,US,null,null,2019-07,[],+12087338073,323
zzw-222@5wr-7gb-7qz,160830012004,null,The Church of Jesus Christ of Latter day Saints,null,null,null,Religious Organizations,Religious Organizations,813110,null,Churches,42.542573,-114.476563,229 Park Ave,Twin Falls,ID,83301,US,null,null,2019-07,"[""lds.org""]",+12087342467,1703
zzw-222@5wr-7m4-6ff,160830007004,null,The Church of Jesus Christ of Latter day Saints,null,null,null,Religious Organizations,Religious Organizations,813110,null,Churches,42.574995,-114.497235,824 Caswell Ave W,Twin Falls,ID,83301,US,null,null,2019-07,"[""lds.org""]",+12087338492,1938
zzw-222@5wr-7m6-xnq,160830008004,null,The Church of Jesus Christ of Latter day Saints,null,null,null,Religious Organizations,Religious Organizations,813110,null,Churches,42.577465,-114.469453,526 Falls Ave,Twin Falls,ID,83301,US,null,null,2019-07,"[""lds.org""]",+12087339118,688
zzw-222@5wr-b9w-54v,160119507002,null,The Church of Jesus Christ of Latter day Saints,null,null,null,Religious Organizations,Religious Organizations,813110,null,Churches,43.182112,-112.506212,1059 W 100 S,Blackfoot,ID,83221,US,null,null,2019-07,"[""lds.org""]",+12086843030,1670
zzw-222@5wr-bbz-5cq,160119504004,null,The Church of Jesus Christ of Latter day Saints,null,null,null,Religious Organizations,Religious Organizations,813110,null,Churches,43.179089,-112.347662,873 S Fisher Ave,Blackfoot,ID,83221,US,null,null,2019-07,"[""lds.org""]",+12087851229,537
zzw-222@5wr-bjn-59f,160119504001,null,The Church of Jesus Christ of Latter day Saints,null,null,null,Religious Organizations,Religious Organizations,813110,null,Churches,43.245074,-112.25727,337 N 200 E,Blackfoot,ID,83221,US,null,null,2019-07,"[""lds.org""]",+12087851540,1792
zzw-222@5wr-bmd-zfz,160119505001,null,The Church of Jesus Christ of Latter day Saints,null,null,null,Religious Organizations,Religious Organizations,813110,null,Churches,43.201744,-112.335551,1650 Highland Dr,Blackfoot,ID,83221,US,null,null,2019-07,"[""lds.org""]",+12087853435,2546
zzw-222@5wr-dd8-7h5,160119501002,null,The Church of Jesus Christ of Latter day Saints,null,null,null,Religious Organizations,Religious Organizations,813110,null,Churches,43.373739,-112.122791,513 S Park Ave,Shelley,ID,83274,US,null,null,2019-07,[],+12083573780,1207
zzw-222@5wr-ddd-yd9,160119501004,null,The Church of Jesus Christ of Latter day Saints,null,null,null,Religious Organizations,Religious Organizations,813110,null,Churches,43.378138,-112.129125,325 W Locust St,Shelley,ID,83274,US,null,null,2019-07,[],+12083575121,209
zzw-222@5wr-ddf-7qz,160119501004,null,The Church of Jesus Christ of Latter day Saints,null,null,null,Religious Organizations,Religious Organizations,813110,null,Churches,43.382723,-112.123976,184 N Park Ave,Shelley,ID,83274,US,null,null,2019-07,[],+12083573327,1887
zzw-222@5wr-df4-jgk,160119501001,null,The Church of Jesus Christ of Latter day Saints,null,null,null,Religious Organizations,Religious Organizations,813110,null,Churches,43.373684,-112.062908,1101 E 1250 N,Shelley,ID,83274,US,null,null,2019-07,[],+12083577472,870
zzw-222@5wr-fn4-tn5,160050019001,null,The Church Of Jesus Christ Of Latter Day Saints,null,null,null,Religious Organizations,Religious Organizations,813110,null,Churches,42.639574,-112.194688,403 W 16th St,McCammon,ID,83250,US,null,null,2019-07,"[""lds.org""]",+12082543101,2626
zzw-222@5wr-gfy-9j9,160050015005,null,Church of Jesus Christ of Later Day Saints,null,null,null,Religious Organizations,Religious Organizations,813110,null,Churches,42.894323,-112.475471,3444 Hawthorne Rd,Pocatello,ID,83201,US,null,null,2019-07,"[""lds.org""]",+12086371012,2630
zzw-222@5wr-ggc-vcq,160050004001,null,The Church of Jesus Christ of Latter day Saints,null,null,null,Religious Organizations,Religious Organizations,813110,null,Churches,42.919966,-112.491852,4773 Independence Ave,Chubbuck,ID,83202,US,null,null,2019-07,"[""lds.org""]",+12082388876,1671
zzw-222@5wr-ggx-whq,160050007001,null,The Church of Jesus Christ of Latter day Saints,null,null,null,Religious Organizations,Religious Organizations,813110,null,Churches,42.865846,-112.422686,2281 E Terry St,Pocatello,ID,83201,US,null,null,2019-07,"[""lds.org""]",+12082329407,2227
zzw-222@5wr-gh4-h5z,160050003001,null,The Church of Jesus Christ of Latter day Saints,null,null,null,Religious Organizations,Religious Organizations,813110,null,Churches,42.92243,-112.455482,4890 Whitaker Rd,Chubbuck,ID,83202,US,null,null,2019-07,"[""lds.org""]",+12082375306,2516
zzw-222@5wr-ghb-bx5,null,null,The Church of Jesus Christ of Latter day Saints,null,null,null,Religious Organizations,Religious Organizations,813110,null,Churches,42.897937,-112.449978,1246 Yellowstone Ave,Pocatello,ID,83201,US,null,2021-10,2019-07,"[""lds.org""]",+12082330130,358
zzw-222@5wr-ghd-whq,160050011011,null,The Church of Jesus Christ of Latter day Saints,null,null,null,Religious Organizations,Religious Organizations,813110,null,Churches,42.914391,-112.409445,2140 Satterfield Dr,Pocatello,ID,83201,US,null,null,2019-07,"[""lds.org""]",+12082370198,2668
zzw-222@5wr-ghf-m6k,160050011014,null,The Church of Jesus Christ of Latter day Saints,null,null,null,Religious Organizations,Religious Organizations,813110,null,Churches,42.909805,-112.425696,120 Fairway Dr,Pocatello,ID,83201,US,null,null,2019-07,"[""lds.org""]",+12082371364,703
zzw-222@5wr-gjq-bx5,160050017001,null,The Church of Jesus Christ of Latter day Saints,null,null,null,Religious Organizations,Religious Organizations,813110,null,Churches,42.818433,-112.408362,5425 Bannock Hwy,Pocatello,ID,83204,US,null,null,2019-07,[],+12082335456,1678
zzw-222@5wr-h69-k4v,160299601004,null,The Church of Jesus Christ of Latter day Saints,null,null,null,Religious Organizations,Religious Organizations,813110,null,Churches,42.572618,-111.731166,404 N Main St,Grace,ID,83241,US,null,null,2019-07,[],+12084253152,1930
zzw-222@5wr-h69-k4v,160299601003,null,The Church of Jesus Christ of Latter day Saints,null,null,null,Religious Organizations,Religious Organizations,813110,null,Churches,42.572618,-111.731166,404 N Main St,Grace,ID,83241,US,null,null,2019-07,[],+12084253152,1930
zzw-222@5wr-qzn-sdv,null,null,null,null,null,null,null,null,null,null,null,null,null,null,null,null,null,null,null,null,null,null,null,null
zzw-222@5ws-hht-2rk,160419701004,null,The Church of Jesus Christ of Latter day Saints,null,null,null,Religious Organizations,Religious Organizations,813110,null,Churches,42.111726,-111.994104,825 N Westside Hwy,Dayton,ID,83232,US,null,null,2019-07,[],+12087473005,1680
zzw-223@5w9-j8t-p9z,160270209022,null,The Church of Jesus Christ of Latter day Saints,null,null,null,Religious Organizations,Religious Organizations,813110,null,Churches,43.531459,-116.58355,607 W Locust Ln,Nampa,ID,83686,US,null,null,2019-07,"[""lds.org""]",+12084425537,1671
zzw-223@5w9-j9q-r49,160010009004,null,The Church of Jesus Christ of Latter day Saints,null,null,null,Religious Organizations,Religious Organizations,813110,null,Churches,43.589075,-116.194117,1925 S Broadway Ave,Boise,ID,83706,US,null,null,2019-07,"[""lds.org""]",+12083432141,1254
zzw-223@5w9-pvs-sqz,160399603003,null,The Church of Jesus Christ of Latter day Saints,null,null,null,Religious Organizations,Religious Organizations,813110,null,Churches,43.130447,-115.686585,315 S 11th E,Mountain Home,ID,83647,US,null,null,2019-07,[],+12085879639,182
zzw-223@5wg-5ty-vvf,160199703002,null,The Church of Jesus Christ of Latter day Saints,null,null,null,Religious Organizations,Religious Organizations,813110,null,Churches,43.593421,-111.950237,10663 N 34th E,Ucon,ID,83454,US,null,null,2019-07,"[""lds.org""]",+12085236554,1317
zzw-223@5wr-7m7-k75,null,null,The Church of Jesus Christ of Latter day Saints,null,null,null,Religious Organizations,Religious Organizations,813110,null,Churches,42.587257,-114.463225,726 Cheney Dr,Twin Falls,ID,83301,US,null,null,2019-07,[],+12087340937,1443
zzw-223@5wr-gfw-zfz,null,null,The Church of Jesus Christ of Latter day Saints,null,null,null,Religious Organizations,Religious Organizations,813110,null,Churches,42.885212,-112.454284,580 Roosevelt Ave,Pocatello,ID,83201,US,null,null,2019-07,"[""deseretindustries.org""]",+12082322862,4211
zzw-223@5wr-hfr-kj9,160299602002,zzw-222@5wr-hfr-kj9,The Church of Jesus Christ of Latter day Saints,null,null,null,Religious Organizations,Religious Organizations,813110,null,Churches,42.662072,-111.593007,300 E 1st N,Soda Springs,ID,83276,US,null,null,2019-07,"[""lds.org""]",+12085473690,3251
zzw-224@5wr-bbr-jvz,160119505002,null,Church of Jesus Christ of Latter Day Sai,null,null,null,Religious Organizations,Religious Organizations,813110,null,Churches,43.191792,-112.355281,845 Grant St,Blackfoot,ID,83221,US,null,null,2019-07,[],+12087850822,1306
zzw-226@5wr-gg4-rx5,null,null,The Church of Jesus Christ of Latter day Saints,null,null,null,Religious Organizations,Religious Organizations,813110,null,Churches,42.942829,-112.467642,140 Bringhurst,Tyhee,ID,83201,US,null,null,2019-07,[],+12082381448,1563
zzw-226@5wr-gg4-rx5,null,null,The Church of Jesus Christ of Latter day Saints,null,null,null,Religious Organizations,Religious Organizations,813110,null,Churches,42.942829,-112.467642,140 Bringhurst,Tyhee,ID,83201,US,null,null,2019-07,[],+12082381448,1563
zzw-226@5wr-gg4-rx5,160050003002,null,The Church of Jesus Christ of Latter day Saints,null,null,null,Religious Organizations,Religious Organizations,813110,null,Churches,42.942829,-112.467642,140 Bringhurst,Tyhee,ID,83201,US,null,null,2019-07,[],+12082381448,1563
zzw-226@5wr-gg4-rx5,160050003002,null,The Church of Jesus Christ of Latter day Saints,null,null,null,Religious Organizations,Religious Organizations,813110,null,Churches,42.942829,-112.467642,140 Bringhurst,Tyhee,ID,83201,US,null,null,2019-07,[],+12082381448,1563
zzw-228@5ws-hyw-2c5,null,null,The Church of Jesus Christ of Latter day Saints,null,null,null,Religious Organizations,Religious Organizations,813110,null,Churches,42.095373,-111.876956,36 S State St,Preston,ID,83263,US,null,null,2019-07,[],+12088521286,4147
zzy-222@3x4-kdw-q2k,160179502005,null,The Church of Jesus Christ of Latter day Saints,null,null,null,Religious Organizations,Religious Organizations,813110,"{""Thu"":[],""Sat"":[],""Tue"":[],""Sun"":[[""9:00"",""15:00""]],""Mon"":[],""Wed"":[],""Fri"":[]}",Churches,48.309842,-116.555398,602 Schweitzer Cutoff Road,Sandpoint,ID,83864,US,null,null,2019-07,[],null,2374
zzy-222@3x4-kdy-gc5,null,null,The Church of Jesus Christ of Latter day Saints,null,null,null,Religious Organizations,Religious Organizations,813110,null,Churches,48.309163,-116.551581,Cut Off Rd,Sandpoint,ID,83864,US,null,null,2019-07,[],+12082635995,1236
zzy-222@3x4-mfr-45f,null,null,The Church of Jesus Christ of Latter day Saints,null,null,null,Religious Organizations,Religious Organizations,813110,"{""Thu"":[],""Sat"":[],""Tue"":[],""Sun"":[[""10:00"",""12:00""]],""Mon"":[],""Wed"":[],""Fri"":[]}",null,48.147311,-116.173843,603 N Stevens,Clark Fork,ID,83811,US,null,null,2019-07,[],+12083103605,936
zzy-222@3x4-qhr-x5z,null,null,The Church of Jesus Christ of Latter day Saints,null,null,null,Religious Organizations,Religious Organizations,813110,"{""Thu"":[],""Sat"":[],""Tue"":[],""Sun"":[[""9:00"",""14:00""]],""Mon"":[],""Wed"":[],""Fri"":[]}",null,48.6803,-116.321918,6568 Alderson Ln,Bonners Ferry,ID,83805,US,null,null,2019-07,[],+15098795608,1608
zzy-222@3x4-qhr-zj9,null,null,The Church of Jesus Christ of Latter day Saints,null,null,null,Religious Organizations,Religious Organizations,813110,null,Churches,48.683696,-116.321336,1512 Alderson Ln,Bonners Ferry,ID,83805,US,null,null,2019-07,"[""lds.org""]",+12082673802,1228
zzy-222@3x5-4j3-p7q,null,null,The Church of Jesus Christ of Latter day Saints,null,null,null,Religious Organizations,Religious Organizations,813110,"{""Thu"":[],""Sat"":[],""Tue"":[],""Sun"":[[""9:00"",""14:00""]],""Mon"":[],""Wed"":[],""Fri"":[]}",null,47.724154,-116.979592,1670 N McGuire Rd,Post Falls,ID,83854,US,null,null,2019-07,[],+12086201254,1699
zzy-222@3x5-4j5-wtv,null,null,The Church of Jesus Christ of Latter day Saints,null,null,null,Religious Organizations,Religious Organizations,813110,null,Churches,47.723306,-116.948031,9900 W 16th Ave,Post Falls,ID,83854,US,null,null,2019-07,"[""lds.org""]",+12087738210,1236
zzy-222@3x5-4ky-47q,null,null,The Church of Jesus Christ of Latter day Saints,null,null,null,Religious Organizations,Religious Organizations,813110,null,Churches,47.794337,-116.889827,Rr 4,Rathdrum,ID,83858,US,null,null,2019-07,[],+12086871021,393
zzy-222@3x5-4n6-7kf,null,null,The Church of Jesus Christ of Latter day Saints,null,null,null,Religious Organizations,Religious Organizations,813110,"{""Thu"":[],""Sat"":[],""Tue"":[],""Sun"":[[""8:30"",""13:30""]],""Mon"":[],""Wed"":[],""Fri"":[]}",null,47.730818,-116.818747,2293 West Hanley Avenue,Coeur D Alene,ID,83814,US,null,null,2019-07,[],+15098799803,2439
zzy-222@3x5-4pq-xnq,null,null,The Church of Jesus Christ of Latter day Saints,null,null,null,Religious Organizations,Religious Organizations,813110,"{""Thu"":[],""Sat"":[],""Tue"":[],""Sun"":[[""8:30"",""13:30""]],""Mon"":[],""Wed"":[],""Fri"":[]}",null,47.751969,-116.779149,477 East Honeysuckle Avenue,Hayden,ID,83835,US,null,null,2019-07,[],+15098799803,2021
zzy-222@3x5-73v-9xq,null,null,The Church of Jesus Christ of Latter day Saints,null,null,null,Religious Organizations,Religious Organizations,813110,"{""Thu"":[],""Sat"":[],""Tue"":[],""Sun"":[[""12:00"",""15:00""]],""Mon"":[],""Wed"":[],""Fri"":[]}",null,48.181548,-116.973184,3281 Highway 2,Priest River,ID,83856,US,null,null,2019-07,[],+12083069015,1359
zzy-222@3x5-8bx-28v,null,null,The Church of Jesus Christ of Latter day Saints,null,null,null,Religious Organizations,Religious Organizations,813110,"{""Thu"":[],""Sat"":[],""Tue"":[],""Sun"":[[""8:30"",""13:00""]],""Mon"":[],""Wed"":[],""Fri"":[]}",null,47.809483,-116.873323,15151 North Meyer Road,Rathdrum,ID,83858,US,null,null,2019-07,[],+12086209274,1969
zzy-222@3x5-8m3-575,null,null,The Church of Jesus Christ of Latter day Saints,null,null,null,Religious Organizations,Religious Organizations,813110,"{""Thu"":[],""Sat"":[],""Tue"":[],""Sun"":[[""10:00"",""12:00""]],""Mon"":[],""Wed"":[],""Fri"":[]}",null,48.141905,-116.593176,331 Westmond Rd,Cocolalla,ID,83813,US,null,null,2019-07,[],+12083059886,1500
zzy-222@5qn-rvt-2p9,160079501001,null,The Church of Jesus Christ of Latter day Saints,null,null,null,Religious Organizations,Religious Organizations,813110,null,Churches,42.327972,-111.307172,585 N 8th St,Montpelier,ID,83254,US,null,null,2019-07,"[""lds.org""]",+12088470753,1104
zzy-222@5w8-f34-2kz,160879701001,null,The Church of Jesus Christ of Latter day Saints,null,null,null,Religious Organizations,Religious Organizations,813110,null,Churches,44.572894,-116.679727,35 N 2nd St,Cambridge,ID,83610,US,null,null,2019-07,[],+12082573737,1197
zzy-222@5w8-gfx-d5f,160859703002,null,The Church of Jesus Christ of Latter day Saints,null,null,null,Religious Organizations,Religious Organizations,813110,null,Churches,44.817824,-116.047078,Farm To Market Rd,McCall,ID,83638,US,null,null,2019-07,[],+12086345910,142
zzy-222@5w8-gfx-d5f,null,null,The Church of Jesus Christ of Latter day Saints,null,null,null,Religious Organizations,Religious Organizations,813110,null,Churches,44.817824,-116.047078,Farm To Market Rd,McCall,ID,83638,US,null,null,2019-07,[],+12086345910,142
zzy-222@5w8-hcz-jsq,null,null,The Church of Jesus Christ of Latter day Saints,null,null,null,Religious Organizations,Religious Organizations,813110,null,Churches,43.990441,-116.324192,8775 Sweet Ola Hwy,Sweet,ID,83670,US,null,null,2019-07,"[""lds.org""]",+12085843317,1553
zzy-222@5w8-hcz-jsq,null,null,The Church of Jesus Christ of Latter day Saints,null,null,null,Religious Organizations,Religious Organizations,813110,null,Churches,43.990441,-116.324192,8775 Sweet Ola Hwy,Sweet,ID,83670,US,null,null,2019-07,"[""lds.org""]",+12085843317,1553
zzy-222@5w8-hcz-jsq,160459601001,null,The Church of Jesus Christ of Latter day Saints,null,null,null,Religious Organizations,Religious Organizations,813110,null,Churches,43.990441,-116.324192,8775 Sweet Ola Hwy,Sweet,ID,83670,US,null,null,2019-07,"[""lds.org""]",+12085843317,1553
zzy-222@5w8-hcz-jsq,160459601001,null,The Church of Jesus Christ of Latter day Saints,null,null,null,Religious Organizations,Religious Organizations,813110,null,Churches,43.990441,-116.324192,8775 Sweet Ola Hwy,Sweet,ID,83670,US,null,null,2019-07,"[""lds.org""]",+12085843317,1553
zzy-222@5w9-5cm-cdv,160379602003,null,The Church of Jesus Christ of Latter day Saints,null,null,null,Religious Organizations,Religious Organizations,813110,null,Churches,44.504707,-114.223469,Highway 93,Challis,ID,83226,US,null,null,2019-07,"[""lds.org""]",+12088794544,1236
zzy-222@5w9-5cm-cdv,null,null,The Church of Jesus Christ of Latter day Saints,null,null,null,Religious Organizations,Religious Organizations,813110,null,Churches,44.504707,-114.223469,Highway 93,Challis,ID,83226,US,null,null,2019-07,"[""lds.org""]",+12088794544,1236
zzy-222@5w9-cxv-5s5,null,null,The Church of Jesus Christ of Latter day Saints,null,null,null,Religious Organizations,Religious Organizations,813110,null,Churches,45.416295,-116.319441,1121 S Main St,Riggins,ID,83549,US,null,null,2019-07,"[""lds.org""]",+12086283204,392
zzy-222@5w9-cxv-5s5,160499604001,null,The Church of Jesus Christ of Latter day Saints,null,null,null,Religious Organizations,Religious Organizations,813110,null,Churches,45.416295,-116.319441,1121 S Main St,Riggins,ID,83549,US,null,null,2019-07,"[""lds.org""]",+12086283204,392
zzy-222@5w9-hk8-54v,160010103311,null,The Church of Jesus Christ of Latter day Saints,null,null,null,Religious Organizations,Religious Organizations,813110,null,Churches,43.66527,-116.394127,6650 N Meridian Rd,Meridian,ID,83646,US,null,null,2019-07,[],+12083192079,1703
zzy-222@5w9-hkz-ysq,160010024134,null,The Church of Jesus Christ of Latter day Saints,null,null,null,Religious Organizations,Religious Organizations,813110,null,Churches,43.647947,-116.325124,11443 McMillan Rd,Boise,ID,83702,US,null,null,2019-07,"[""lds.org""]",+12083238308,2630
zzy-222@5w9-hm3-3nq,160010103311,null,LDS Church,null,null,null,Religious Organizations,Religious Organizations,813110,null,Churches,43.662252,-116.361883,6375 N Royal Park Ave,Boise,ID,83713,US,null,null,2019-07,[],+12089390541,1678
zzy-222@5w9-hm7-py9,160010103313,null,The Church of Jesus Christ of Latter day Saints,null,null,null,Religious Organizations,Religious Organizations,813110,null,Churches,43.635189,-116.34687,N Duane Way,Boise,ID,83713,US,null,null,2019-07,"[""lds.org""]",+12088884141,1236
zzy-222@5w9-hm7-q9f,null,null,The Church of Jesus Christ of Latter day Saints,null,null,null,Religious Organizations,Religious Organizations,813110,null,Churches,43.633871,-116.346936,Duane & Ustick Rd,Meridian,ID,83702,US,null,null,2019-07,"[""lds.org""]",+12088884141,1236
zzy-222@5w9-hmq-wrk,160010102212,null,The Church of Jesus Christ of Latter day Saints,null,null,null,Religious Organizations,Religious Organizations,813110,null,Churches,43.695956,-116.363483,Highway 55,Eagle,ID,83629,US,null,null,2019-07,"[""lds.org""]",+12087932785,2058
zzy-222@5w9-hmz-r8v,160010103342,null,The Church of Jesus Christ of Latter day Saints,null,null,null,Religious Organizations,Religious Organizations,813110,null,Churches,43.618052,-116.432927,1560 S Ten Mile Rd,Meridian,ID,83634,US,null,null,2019-07,"[""lds.org""]",null,1723
zzy-222@5w9-hnt-4vz,160010023103,null,The Church of Jesus Christ of Latter day Saints,null,null,null,Religious Organizations,Religious Organizations,813110,null,Churches,43.616882,-116.3244,Shamrock St,Boise,ID,83713,US,null,null,2019-07,"[""lds.org""]",+12083773220,1210
zzy-222@5w9-hnt-4vz,null,null,The Church of Jesus Christ of Latter day Saints,null,null,null,Religious Organizations,Religious Organizations,813110,null,Churches,43.616882,-116.3244,Shamrock St,Boise,ID,83713,US,null,null,2019-07,"[""lds.org""]",+12083773220,1210
zzy-222@5w9-hpv-xkf,160270219032,null,The Church of Jesus Christ of Latter day Saints,null,null,null,Religious Organizations,Religious Organizations,813110,null,Churches,43.710987,-116.572789,2250 Lansing Ln,Middleton,ID,83644,US,null,null,2019-07,"[""lds.org""]",+12085856250,1236
zzy-222@5w9-j2s-26k,160010104014,null,The Church of Jesus Christ of Latter day Saints,null,null,null,Religious Organizations,Religious Organizations,813110,null,Churches,43.56521,-116.415013,4225 Linder Ave,Kuna,ID,83634,US,null,null,2019-07,[],+12089224721,1236
zzy-222@5w9-j46-4qf,160010103133,null,The Church of Jesus Christ of Latter day Saints,null,null,null,Religious Organizations,Religious Organizations,813110,null,Churches,43.56063,-116.372849,1651 E Amity Rd,Meridian,ID,83642,US,null,null,2019-07,"[""lds.org""]",+12084010269,76
zzy-222@5w9-j8x-qvf,160270209012,null,The Church of Jesus Christ of Latter day Saints,null,null,null,Religious Organizations,Religious Organizations,813110,null,Churches,43.539857,-116.563374,3015 Sunnyridge Rd,Nampa,ID,83651,US,null,null,2019-07,[],+12084673881,1958
zzy-222@5w9-j9r-mff,160010015001,null,The Church of Jesus Christ of Latter day Saints,null,null,null,Religious Organizations,Religious Organizations,813110,null,Churches,43.597544,-116.221709,3200 Cassia,Boise,ID,83702,US,null,null,2019-07,"[""lds.org""]",+12083449671,2692
zzy-222@5w9-jb3-syv,160010023122,null,The Church of Jesus Christ of Latter day Saints,null,null,null,Religious Organizations,Religious Organizations,813110,null,Churches,43.629283,-116.313923,2650 N Five Mile Rd,Boise,ID,83702,US,null,null,2019-07,"[""lds.org""]",+12083220327,194
zzy-222@5w9-jbw-p7q,160010001001,null,The Church of Jesus Christ of Latter day Saints,null,null,null,Religious Organizations,Religious Organizations,813110,null,Churches,43.619514,-116.20184,Shamrock & Mcmillanrd,Boise,ID,83702,US,null,null,2019-07,"[""lds.org""]",+12083773220,1210
zzy-222@5w9-jbw-p7q,null,null,The Church of Jesus Christ of Latter day Saints,null,null,null,Religious Organizations,Religious Organizations,813110,null,Churches,43.619514,-116.20184,Shamrock & Mcmillanrd,Boise,ID,83702,US,null,null,2019-07,"[""lds.org""]",+12083773220,1210
zzy-222@5w9-jbx-yjv,160010005001,null,The Church of Jesus Christ of Latter day Saints,null,null,null,Religious Organizations,Religious Organizations,813110,null,Churches,43.64759,-116.221092,2600 W Hill Rd,Boise,ID,83702,US,null,null,2019-07,[],+12083430637,66
zzy-222@5w9-jc4-nyv,160010009001,null,The Church of Jesus Christ of Latter day Saints,null,null,null,Religious Organizations,Religious Organizations,813110,null,Churches,43.600721,-116.207572,2150 W Boise Ave,Boise,ID,83706,US,null,null,2019-07,"[""lds.org""]",+12083833735,1852
zzy-222@5w9-jct-66k,160010022211,null,The Church of Jesus Christ of Latter day Saints,null,null,null,Religious Organizations,Religious Organizations,813110,null,Churches,43.561795,-116.332439,12040 W Amity Rd,Boise,ID,83702,US,null,null,2019-07,[],+12083622638,2673
zzy-222@5w9-n93-fpv,160739502003,null,LDS Church,null,null,null,Religious Organizations,Religious Organizations,813110,null,Churches,42.939214,-116.02861,359450 Highway 78,Grand View,ID,83624,US,null,null,2019-07,"[""lds.org""]",+12088342181,1025
zzy-222@5w9-th5-gp9,160759603001,null,The Church of Jesus Christ of Latter day Saints,null,null,null,Religious Organizations,Religious Organizations,813110,null,Churches,44.009066,-116.91772,329 S Pennsylvania Ave,Fruitland,ID,83619,US,null,null,2019-07,[],+12084524345,328
zzy-222@5w9-ts8-4n5,null,null,The Church of Jesus Christ of Latter day Saints,null,null,null,Religious Organizations,Religious Organizations,813110,null,Churches,44.074862,-116.913165,1 Iowa Ave,Payette,ID,83661,US,null,null,2019-07,"[""lds.org""]",+12086422911,1236
zzy-222@5w9-v3q-qcq,160459602001,null,The Church of Jesus Christ of Latter day Saints,null,null,null,Religious Organizations,Religious Organizations,813110,null,Churches,43.894562,-116.645791,8342 W Idaho Blvd,Letha,ID,83636,US,null,null,2019-07,[],+12083652712,1201
zzy-222@5w9-v49-b8v,160459601003,null,The Church of Jesus Christ of Latter day Saints,null,null,null,Religious Organizations,Religious Organizations,813110,null,Churches,43.901154,-116.511591,980 W Central Rd,Emmett,ID,83617,US,null,null,2019-07,[],+12083656195,2599
zzy-222@5w9-vnr-389,160879702003,null,The Church of Jesus Christ of Latter day Saints,null,null,null,Religious Organizations,Religious Organizations,813110,null,Churches,44.246083,-116.964855,300 W Main St,Weiser,ID,83672,US,null,null,2019-07,"[""lds.org""]",+12084143302,2093
zzy-222@5w9-vnr-5cq,null,null,The Church of Jesus Christ of Latter day Saints,null,null,null,Religious Organizations,Religious Organizations,813110,null,Churches,44.245554,-116.946402,1300 E Main St,Weiser,ID,83672,US,null,null,2019-07,"[""lds.org""]",+12084142824,1236
zzy-222@5w9-y9f-wx5,160739501013,null,The Church of Jesus Christ of Latter day Saints,null,null,null,Religious Organizations,Religious Organizations,813110,null,Churches,43.617992,-116.947081,708 W Idaho Ave,Homedale,ID,83628,US,null,null,2019-07,[],+12083373924,1426
zzy-222@5wc-cpm-xqz,null,null,Church of Jesus Christ LDS,null,null,null,Religious Organizations,Religious Organizations,813110,null,Churches,46.744663,-116.975372,Mount View,Moscow,ID,83843,US,null,null,2019-07,[],+12088824872,1149
zzy-222@5wc-cpm-xqz,160570052005,null,Church of Jesus Christ LDS,null,null,null,Religious Organizations,Religious Organizations,813110,null,Churches,46.744663,-116.975372,Mount View,Moscow,ID,83843,US,null,null,2019-07,[],+12088824872,1149
zzy-222@5wc-cpm-yqf,null,null,The Church of Jesus Christ of Latter day Saints,null,null,null,Religious Organizations,Religious Organizations,813110,"{""Thu"":[],""Sat"":[],""Tue"":[],""Sun"":[[""8:00"",""17:00""]],""Mon"":[],""Wed"":[],""Fri"":[]}",null,46.744494,-116.980084,1016 South Mountainview Road,Moscow,ID,83843,US,null,null,2019-07,"[""comeuntochrist.org""]",+12088834516,54
zzy-222@5wc-csc-35z,null,null,The Church of Jesus Christ of Latter day Saints,null,null,null,Religious Organizations,Religious Organizations,813110,"{""Thu"":[],""Sat"":[],""Tue"":[],""Sun"":[[""8:00"",""17:00""]],""Mon"":[],""Wed"":[],""Fri"":[]}",null,46.413293,-117.028643,702 4th Ave,Lewiston,ID,83501,US,null,null,2019-07,"[""comeuntochrist.org""]",+14352443550,198583
zzy-222@5wf-y5g-fmk,160659501001,null,The Church of Jesus Christ of Latter day Saints,null,null,null,Religious Organizations,Religious Organizations,813110,null,Churches,43.912278,-111.878065,5973 N 5000th,Rexburg,ID,83440,US,null,null,2019-07,[],+12083565302,1859
zzy-222@5wf-y5t-cnq,160659505003,null,The Church of Jesus Christ of Latter day Saints,null,null,null,Religious Organizations,Religious Organizations,813110,null,Churches,43.811211,-111.810548,1545 W 1000th S,Rexburg,ID,83440,US,null,null,2019-07,[],+12083596148,92
zzy-222@5wf-y5t-cnq,null,null,The Church of Jesus Christ of Latter day Saints,null,null,null,Religious Organizations,Religious Organizations,813110,null,Churches,43.811211,-111.810548,1545 W 1000th S,Rexburg,ID,83440,US,null,null,2019-07,[],+12083596148,92
zzy-222@5wf-y5t-cnq,160659503022,null,The Church of Jesus Christ of Latter day Saints,null,null,null,Religious Organizations,Religious Organizations,813110,null,Churches,43.811211,-111.810548,1545 W 1000th S,Rexburg,ID,83440,US,null,null,2019-07,[],+12083596148,92
zzy-222@5wf-y6z-dn5,160659503023,null,The Church of Jesus Christ of Latter day Saints,null,null,null,Religious Organizations,Religious Organizations,813110,null,Churches,43.80377,-111.779919,1090 S 2nd E,Rexburg,ID,83440,US,null,null,2019-07,[],+12083590921,1782
zzy-222@5wf-zcp-4d9,160439702003,null,The Church of Jesus Christ of Latter day Saints,null,null,null,Religious Organizations,Religious Organizations,813110,null,Churches,44.071564,-111.448215,1 3600th E 1313n,Ashton,ID,83420,US,null,null,2019-07,[],+12086523904,2239
zzy-222@5wf-zcp-4d9,null,null,The Church of Jesus Christ of Latter day Saints,null,null,null,Religious Organizations,Religious Organizations,813110,null,Churches,44.071564,-111.448215,1 3600th E 1313n,Ashton,ID,83420,US,null,null,2019-07,[],+12086523904,2239
zzy-222@5wf-zxy-r8v,160439703006,null,The Church of Jesus Christ of Latter day Saints,null,null,null,Religious Organizations,Religious Organizations,813110,null,Churches,43.961881,-111.758415,311 N Ctr,Parker,ID,83438,US,null,null,2019-07,[],+12086243509,74
zzy-222@5wf-zxy-v2k,160439703006,null,The Church of Jesus Christ of Latter day Saints,null,null,null,Religious Organizations,Religious Organizations,813110,null,Churches,43.958684,-111.757284,132 N Ctr,Parker,ID,83438,US,null,null,2019-07,[],+12086243456,1725
zzy-222@5wg-425-xt9,160199706031,null,The Church of Jesus Christ of Latter day Saints,null,null,null,Religious Organizations,Religious Organizations,813110,null,Churches,43.47319,-111.993341,2055 Coronado St,Idaho Falls,ID,83401,US,null,null,2019-07,[],+12085527740,2675
zzy-222@5wg-427-nwk,160199711002,29f-222@5wg-3zm-hh5,The Church of Jesus Christ of Latter day Saints,null,null,null,Religious Organizations,Religious Organizations,813110,null,Churches,43.491723,-112.034092,4459 E Katcina Dr,Idaho Falls,ID,83401,US,null,null,2019-07,"[""lds.org""]",+12085247196,205
zzy-222@5wg-42d-vzz,160199710004,null,The Church of Jesus Christ of Latter day Saints,null,null,null,Religious Organizations,Religious Organizations,813110,null,Churches,43.479286,-112.027909,2051 S Emerson,Idaho Falls,ID,83401,US,null,null,2019-07,"[""lds.org""]",+12085238461,2075
zzy-222@5wg-42f-nt9,160199709003,null,The Church of Jesus Christ of Latter day Saints,null,null,null,Religious Organizations,Religious Organizations,813110,null,Churches,43.469115,-112.023178,3195 N Holmes Ave,Idaho Falls,ID,83401,US,null,null,2019-07,"[""lds.org""]",+12085290369,1838
zzy-222@5wg-42g-cyv,160199705021,null,The Church of Jesus Christ of Latter day Saints,null,null,null,Religious Organizations,Religious Organizations,813110,null,Churches,43.477509,-111.975536,2150 S Avocet,Ammon,ID,83406,US,null,null,2019-07,"[""lds.org""]",+12085235736,2022
zzy-222@5wg-42t-8vz,null,null,The Church of Jesus Christ of Latter day Saints,null,null,null,Religious Organizations,Religious Organizations,813110,null,Churches,43.498103,-112.040977,955 Memorial Dr,Idaho Falls,ID,83402,US,null,null,2019-07,"[""mormon.org""]",null,2644
zzy-222@5wg-43z-k4v,null,null,LDS Taylor Mountain Stake,null,null,null,Religious Organizations,Religious Organizations,813110,null,Churches,43.460292,-112.029729,260 Castlerock Ln,Idaho Falls,ID,83404,US,null,2022-06,2019-07,"[""ldschurchtemples.com""]",+12085350968,2697
zzy-222@5wg-5c3-3dv,null,null,The Church of Jesus Christ of Latter day Saints,null,null,null,Religious Organizations,Religious Organizations,813110,null,Churches,43.67968,-111.883248,364 N 4100 E,Rigby,ID,83442,US,null,null,2019-07,"[""lds.org""]",+12087457210,1723
zzy-222@5wg-5f9-x5z,null,null,The Church of Jesus Christ of Latter day Saints,null,null,null,Religious Organizations,Religious Organizations,813110,null,Churches,43.672395,-111.915121,198 N 4300 E,Rigby,ID,83442,US,null,null,2019-07,"[""lds.org""]",+12087456127,335
zzy-222@5wg-5mb-sqz,160659504001,null,The Church of Jesus Christ of Latter day Saints,null,null,null,Religious Organizations,Religious Organizations,813110,null,Churches,43.812882,-111.761647,612 S Hidden Valley Rd,Rexburg,ID,83440,US,null,null,2019-07,[],+12086568816,1729
zzy-222@5wg-5ty-vvf,160199703002,null,The Church of Jesus Christ of Latter day Saints,null,null,null,Religious Organizations,Religious Organizations,813110,null,Churches,43.554106,-111.94344,Corner Iona Rd & Ririe Hwy,Idaho Falls,ID,83401,US,null,null,2019-07,"[""lds.org""]",+12085231761,363
zzy-222@5wh-bgx-7h5,null,null,The Church of Jesus Christ of Latter day Saints,null,null,null,Religious Organizations,Religious Organizations,813110,"{""Thu"":[],""Sat"":[],""Tue"":[],""Sun"":[[""10:00"",""12:00""]],""Mon"":[],""Wed"":[],""Fri"":[]}",null,47.530716,-116.241215,902 S Division St,Pinehurst,ID,83850,US,null,null,2019-07,[],+12085124435,978
zzy-222@5wh-bgz-t9z,160799602005,null,The Church of Jesus Christ of Latter day Saints,null,null,null,Religious Organizations,Religious Organizations,813110,null,Churches,47.538647,-116.233218,110 N Division St,Pinehurst,ID,83850,US,null,null,2019-07,[],+12086822911,1206
zzy-222@5wh-hbr-6p9,null,null,The Church of Jesus Christ of Latter day Saints,null,null,null,Religious Organizations,Religious Organizations,813110,"{""Thu"":[],""Sat"":[],""Tue"":[],""Sun"":[[""10:00"",""12:00""]],""Mon"":[],""Wed"":[],""Fri"":[]}",null,47.314744,-116.58688,201 S 23rd St,St. Maries,ID,83861,US,null,null,2019-07,[],+12084109483,710
zzy-222@5wh-hvk-vvf,null,null,The Church of Jesus Christ of Latter day Saints,null,null,null,Religious Organizations,Religious Organizations,813110,"{""Thu"":[],""Sat"":[],""Tue"":[],""Sun"":[[""10:00"",""12:00""]],""Mon"":[],""Wed"":[],""Fri"":[]}",null,47.337653,-116.878466,354 East A Street,Plummer,ID,83851,US,null,null,2019-07,[],+12084109483,693
zzy-222@5wj-krc-dsq,160499400001,null,The Church of Jesus Christ of Latter day Saints,null,null,null,Religious Organizations,Religious Organizations,813110,null,Churches,45.927403,-116.11182,Valley Vw,Kamiah,ID,83536,US,null,null,2019-07,[],+12089352842,1362
zzy-222@5wj-krc-dsq,null,null,The Church of Jesus Christ of Latter day Saints,null,null,null,Religious Organizations,Religious Organizations,813110,null,Churches,45.927403,-116.11182,Valley Vw,Kamiah,ID,83536,US,null,null,2019-07,[],+12089352842,1362
zzy-222@5wj-krc-dsq,160499602002,null,The Church of Jesus Christ of Latter day Saints,null,null,null,Religious Organizations,Religious Organizations,813110,null,Churches,45.927403,-116.11182,Valley Vw,Kamiah,ID,83536,US,null,null,2019-07,[],+12089352842,1362
zzy-222@5wq-qtj-975,null,null,The Church of Jesus Christ of Latter day Saints,null,null,null,Religious Organizations,Religious Organizations,813110,null,Churches,42.310211,-113.371737,Church St,Malta,ID,83342,US,null,null,2019-07,[],+12086452480,1236
zzy-222@5wq-qtj-9fz,160319501003,null,The Church of Jesus Christ of Latter day Saints,null,null,null,Religious Organizations,Religious Organizations,813110,null,Churches,42.308023,-113.371539,80 N 1st W,Malta,ID,83342,US,null,null,2019-07,[],+12086452404,219
zzy-222@5wq-rfk-7yv,160319501002,null,Elba LDS Church,null,null,null,Religious Organizations,Religious Organizations,813110,null,Churches,42.306285,-113.369007,1198 E 2000 S,Elba,ID,83342,US,null,null,2019-07,[],+12086385566,123
zzy-222@5wq-rrv-89z,null,null,The Church of Jesus Christ of Latter day Saints,null,null,null,Religious Organizations,Religious Organizations,813110,null,Churches,42.601355,-113.853356,125 S 950 W,Paul,ID,83347,US,null,null,2019-07,"[""lds.org""]",+12084385167,1729
zzy-222@5wq-rsj-vfz,null,null,The Church of Jesus Christ of Latter day Saints,null,null,null,Religious Organizations,Religious Organizations,813110,null,Churches,42.607947,-113.783344,950 W 127th S,Paul,ID,83347,US,null,null,2019-07,"[""lds.org""]",+12084385703,1236
zzy-222@5wq-s2q-sbk,160679703002,null,The Church Of Jesus Christ Of Latter Day Saints,null,null,null,Religious Organizations,Religious Organizations,813110,null,Churches,42.667451,-113.59434,20403 5th St,Acequia,ID,83350,US,null,null,2019-07,"[""lds.org""]",+12084364033,1902
zzy-222@5wq-s6z-2kz,160319505003,null,The Church of Jesus Christ of Latter day Saints,null,null,null,Religious Organizations,Religious Organizations,813110,null,Churches,42.475491,-113.824075,152 W 400 S,Burley,ID,83318,US,null,null,2019-07,"[""lds.org""]",+12086781611,1661
zzy-222@5wq-s7h-9zz,160319505004,null,The Church Of Jesus Christ Of Latter Day Saints,null,null,null,Religious Organizations,Religious Organizations,813110,null,Churches,42.519439,-113.834004,96 S 200 W,Burley,ID,83318,US,null,null,2019-07,"[""lds.org""]",+12086781773,1804
zzy-222@5wq-s7v-fvf,160319503001,null,The Church of Jesus Christ of Latter day Saints,null,null,null,Religious Organizations,Religious Organizations,813110,null,Churches,42.491889,-113.745013,274 S 250 E,Burley,ID,83318,US,null,null,2019-07,[],+12086789423,2009
zzy-222@5wq-s7v-fvf,null,null,The Church of Jesus Christ of Latter day Saints,null,null,null,Religious Organizations,Religious Organizations,813110,null,Churches,42.491889,-113.745013,274 S 250 E,Burley,ID,83318,US,null,null,2019-07,[],+12086789423,2009
zzy-222@5wq-s84-zzz,160679702004,null,The Church of Jesus Christ of Latter day Saints,null,null,null,Religious Organizations,Religious Organizations,813110,null,Churches,42.545043,-113.753483,530 Villa Dr,Heyburn,ID,83336,US,null,null,2019-07,[],+12086798176,878
zzy-222@5wq-s89-45f,160319503003,null,The Church of Jesus Christ of Latter day Saints,null,null,null,Religious Organizations,Religious Organizations,813110,null,Churches,42.53232,-113.787387,515 E 16th St,Burley,ID,83318,US,null,null,2019-07,[],+12086782219,1786
zzy-222@5wq-s89-9cq,null,null,The Church of Jesus Christ of Latter day Saints,null,null,null,Religious Organizations,Religious Organizations,813110,null,Churches,42.537956,-113.794962,213 W Main St,Burley,ID,83318,US,null,null,2019-07,"[""lds.org""]",+12086542591,923
zzy-222@5wq-s89-gff,160319505004,null,The Church of Jesus Christ of Latter day Saints,null,null,null,Religious Organizations,Religious Organizations,813110,null,Churches,42.522734,-113.803848,2420 Park Ave,Burley,ID,83318,US,null,null,2019-07,"[""lds.org""]",+12086781256,2682
zzy-222@5wq-s89-w8v,160319503004,null,The Church of Jesus Christ of Latter day Saints,null,null,null,Religious Organizations,Religious Organizations,813110,null,Churches,42.526897,-113.789995,2050 Normal Ave,Burley,ID,83318,US,null,null,2019-07,"[""lds.org""]",+12086782218,1859
zzy-222@5wq-sfy-q75,null,224-222@5wq-sfy-q75,The Church of Jesus Christ of Latter day Saints,null,null,null,Religious Organizations,Religious Organizations,813110,null,Churches,42.615277,-113.67155,3 Five & So F,Rupert,ID,83350,US,null,null,2019-07,[],+12084366756,5061
zzy-222@5wq-sfz-g8v,160679705002,null,The Church of Jesus Christ of Latter day Saints,null,null,null,Religious Organizations,Religious Organizations,813110,null,Churches,42.608207,-113.674271,526 S F St,Rupert,ID,83350,US,null,null,2019-07,"[""lds.org""]",+12084363410,1809
zzy-222@5wq-sg2-3qz,null,null,The Church of Jesus Christ of Latter day Saints,null,null,null,Religious Organizations,Religious Organizations,813110,null,Churches,42.615484,-113.686976,26 S 100 W,Rupert,ID,83350,US,null,null,2019-07,"[""lds.org""]",+12084363921,2616
zzy-222@5wq-sg2-ckf,160679704002,null,The Church of Jesus Christ of Latter day Saints,null,null,null,Religious Organizations,Religious Organizations,813110,null,Churches,42.620128,-113.675938,806 G St,Rupert,ID,83350,US,null,null,2019-07,"[""lds.org""]",null,1872
zzy-222@5wq-sg4-zcq,160679704002,null,The Church of Jesus Christ of Latter day Saints,null,null,null,Religious Organizations,Religious Organizations,813110,null,Churches,42.631172,-113.663446,324 E 18th St,Rupert,ID,83350,US,null,null,2019-07,"[""lds.org""]",+12084364446,2548
zzy-222@5wq-sh8-yn5,160319502001,null,The Church of Jesus Christ of Latter day Saints,null,null,null,Religious Organizations,Religious Organizations,813110,null,Churches,42.517515,-113.631743,213 W Main,Declo,ID,83323,US,null,null,2019-07,"[""lds.org""]",+12086542062,2478
zzy-222@5wq-shd-6tv,160319502001,null,The Church of Jesus Christ of Latter day Saints,null,null,null,Religious Organizations,Religious Organizations,813110,null,Churches,42.518316,-113.625238,207 E Main St,Declo,ID,83323,US,null,null,2019-07,[],+12086542073,305
zzy-222@5wq-xc7-n5z,160319506002,null,The Church Of Jesus Christ Of Latter Day Saints,null,null,null,Religious Organizations,Religious Organizations,813110,null,Churches,42.246903,-113.883213,301 N Center St,Oakley,ID,83346,US,null,null,2019-07,"[""lds.org""]",+12088623226,1934
zzy-222@5wq-xc7-pjv,160319506002,null,The Church of Jesus Christ of Latter day Saints,null,null,null,Religious Organizations,Religious Organizations,813110,null,Churches,42.242763,-113.887593,314 W Main St,Oakley,ID,83346,US,null,null,2019-07,"[""lds.org""]",+12088623230,179
zzy-222@5wr-26h-j7q,160479602001,null,The Church of Jesus Christ of Latter day Saints,null,null,null,Religious Organizations,Religious Organizations,813110,null,Churches,42.821934,-114.898898,620 N State St,Hagerman,ID,83332,US,null,null,2019-07,"[""lds.org""]",+12088374745,1692
zzy-222@5wr-2cd-75z,160539703001,null,Church of Jesus Christ of Latter Day Saints the Beehive Clothing,null,null,null,Religious Organizations,Religious Organizations,813110,null,Churches,42.725324,-114.502404,217 N Kennedy,Jerome,ID,83338,US,null,null,2019-07,[],null,323
zzy-222@5wr-4m5-gzf,null,null,The Church of Jesus Christ of Latter day Saints,null,null,null,Religious Organizations,Religious Organizations,813110,null,Churches,43.348069,-114.799175,Alturas Ave,Fairfield,ID,83327,US,null,null,2019-07,"[""lds.org""]",+12087642346,385
zzy-222@5wr-5q5-ckf,160830005005,null,LDS Church,null,null,null,Religious Organizations,Religious Organizations,813110,null,Churches,42.570274,-114.618076,841 W Midway St,Filer,ID,83328,US,null,null,2019-07,[],+12083264361,2616
zzy-222@5wr-7cw-wp9,160830013001,null,The Church Of Jesus Christ Of Latter Day Saints,null,null,null,Religious Organizations,Religious Organizations,813110,null,Churches,42.556399,-114.365684,3857 N 3500 E,Kimberly,ID,83341,US,null,null,2019-07,"[""lds.org""]",+12084235503,2598
zzy-222@5wr-7d4-v4v,160830013005,null,The Church of Jesus Christ of Latter day Saints,null,null,null,Religious Organizations,Religious Organizations,813110,null,Churches,42.532292,-114.361696,222 Birch St S,Kimberly,ID,83341,US,null,null,2019-07,"[""lds.org""]",+12084234073,1296
zzy-222@5wr-7d5-s89,null,null,The Church of Jesus Christ of Latter day Saints,null,null,null,Religious Organizations,Religious Organizations,813110,null,Churches,42.530635,-114.373339,3660 N 3450 E,Kimberly,ID,83341,US,null,null,2019-07,"[""lds.org""]",+12084234085,177
zzy-222@5wr-7dk-gp9,160830009002,null,The Church of Jesus Christ of Latter day Saints,null,null,null,Religious Organizations,Religious Organizations,813110,null,Churches,42.572402,-114.420866,680 Hankins Rd N,Twin Falls,ID,83301,US,null,null,2019-07,"[""lds.org""]",+12087344596,265
zzy-222@5wr-7dm-9xq,160830009001,null,The Church of Jesus Christ of Latter day Saints,null,null,null,Religious Organizations,Religious Organizations,813110,null,Churches,42.586804,-114.443502,2085 S Temple Dr,Twin Falls,ID,83301,US,null,null,2019-07,"[""mormon.org""]",+12087333446,2467
zzy-222@5wr-7g6-fzz,160830010002,null,The Church of Jesus Christ of Latter day Saints,null,null,null,Religious Organizations,Religious Organizations,813110,null,Churches,42.555168,-114.42846,2680 Elizabeth Blvd,Twin Falls,ID,83301,US,null,null,2019-07,[],null,1840
zzy-222@5wr-7gc-qmk,null,null,The Church of Jesus Christ of Latter day Saints,null,null,null,Religious Organizations,Religious Organizations,813110,null,Churches,42.543411,-114.421251,680 Hankins Rd S,Kimberly,ID,83341,US,null,null,2019-07,[],+12084235513,1236
zzy-222@5wr-7jr-zzz,160539705002,null,The Church of Jesus Christ of Latter day Saints,null,null,null,Religious Organizations,Religious Organizations,813110,null,Churches,42.710216,-114.508856,50 E 100 S,Jerome,ID,83338,US,null,null,2019-07,[],+12083248082,1652
zzy-222@5wr-84f-8qf,160830014001,null,The Church Of Jesus Christ Of Latter Day Saints,null,null,null,Religious Organizations,Religious Organizations,813110,null,Churches,42.474839,-114.162362,23709 Highway 30,Murtaugh,ID,83344,US,null,null,2019-07,"[""lds.org""]",+12084325450,1637
zzy-222@5wr-9zr-nbk,160050002003,null,The Church of Jesus Christ of Latter day Saints,null,null,null,Religious Organizations,Religious Organizations,813110,null,Churches,42.799243,-112.3839,8200 W Portneuf Rd,Pocatello,ID,83204,US,null,null,2019-07,[],+12082331732,1557
zzy-222@5wr-b3r-cdv,null,null,The Church of Jesus Christ of Latter day Saints,null,null,null,Religious Organizations,Religious Organizations,813110,null,Churches,42.822455,-111.94801,1001 Stalker Rd,Bancroft,ID,83217,US,null,null,2019-07,[],+12086487747,1042
zzy-222@5wr-bby-py9,160119505004,null,The Church of Jesus Christ of Latter day Saints,null,null,null,Religious Organizations,Religious Organizations,813110,null,Churches,43.181637,-112.362961,900 Riverton Rd,Blackfoot,ID,83221,US,null,null,2019-07,[],+12087856985,2706
zzy-222@5wr-bc9-kpv,null,null,The Church of Jesus Christ of Latter day Saints,null,null,null,Religious Organizations,Religious Organizations,813110,null,Churches,43.210337,-112.441733,95 N 740th W,Moreland,ID,83256,US,null,null,2019-07,"[""lds.org""]",+12086843157,2517
zzy-222@5wr-bmw-26k,160119506001,null,The Church of Jesus Christ of Latter day Saints,null,null,null,Religious Organizations,Religious Organizations,813110,null,Churches,43.255016,-112.32566,403 N 150 W,Blackfoot,ID,83221,US,null,null,2019-07,"[""lds.org""]",+12087856405,2240
zzy-222@5wr-bxs-j5f,160119507003,null,The Church of Jesus Christ of Latter day Saints,null,null,null,Religious Organizations,Religious Organizations,813110,null,Churches,43.11145,-112.599578,1533 W Highway 39,Pingree,ID,83262,US,null,null,2019-07,"[""lds.org""]",+12086843671,1884
zzy-222@5wr-dfx-dd9,160119502003,null,The Church of Jesus Christ of Latter day Saints,null,null,null,Religious Organizations,Religious Organizations,813110,null,Churches,43.314599,-112.16416,823 N 675 E,Basalt,ID,83218,US,null,null,2019-07,"[""lds.org""]",+12083466282,2613
zzy-222@5wr-dn4-75z,null,null,The Church of Jesus Christ of Latter day Saints,null,null,null,Religious Organizations,Religious Organizations,813110,null,Churches,43.452722,-111.960345,3934 W 49th S,Ammon,ID,83406,US,null,null,2019-07,"[""lds.org""]",+12085291648,2446
zzy-222@5wr-dn7-fzz,160199705023,null,The Church of Jesus Christ of Latter day Saints,null,null,null,Religious Organizations,Religious Organizations,813110,null,Churches,43.467762,-111.94868,4375 E Sunnyside Rd,Idaho Falls,ID,83406,US,null,null,2019-07,[],+12085292609,1886
zzy-222@5wr-fn4-26k,160050019001,null,The Church of Jesus Christ of Latter day Saints,null,null,null,Religious Organizations,Religious Organizations,813110,null,Churches,42.648028,-112.194609,804 Logan St,McCammon,ID,83250,US,null,null,2019-07,"[""lds.org""]",+12082543927,197
zzy-222@5wr-gh5-st9,160050003004,null,Church of Jesus Christ of Later Day Saints,null,null,null,Religious Organizations,Religious Organizations,813110,null,Churches,42.928259,-112.475156,450 James Ave,Chubbuck,ID,83202,US,null,null,2019-07,"[""lds.org""]",+12082377618,2669
zzy-222@5wr-gvc-nt9,null,null,Raft River LDS Church,null,null,null,Religious Organizations,Religious Organizations,813110,null,null,42.783296,-112.855003,2551 E 300th S,American Falls,ID,83211,US,null,null,2019-07,[],+12083495575,189
zzy-222@5wr-h8b-94v,160299601003,null,The Church of Jesus Christ of Latter day Saints,null,null,null,Religious Organizations,Religious Organizations,813110,null,Churches,42.504089,-111.727497,2060 Niter Bench Rd,Grace,ID,83241,US,null,null,2019-07,[],+12084276339,1674
zzy-222@5wr-hc4-v9f,160299601005,null,The Church of Jesus Christ of Latter day Saints,null,null,null,Religious Organizations,Religious Organizations,813110,null,Churches,42.717066,-111.886861,355 S Main St,Bancroft,ID,83217,US,null,null,2019-07,[],+12086487132,1419
zzy-222@5wr-hnx-kmk,null,null,The Church of Jesus Christ of Latter day Saints,null,null,null,Religious Organizations,Religious Organizations,813110,null,Churches,42.40889,-111.727099,11475 W 10400th N,Thatcher,ID,83283,US,null,null,2019-07,[],+14358543893,196
zzy-222@5wr-pcn-8sq,160239701001,null,The Church of Jesus Christ of Latter day Saints,null,null,null,Religious Organizations,Religious Organizations,813110,null,Churches,43.783806,-113.002604,1526 Highway 33,Howe,ID,83244,US,null,null,2019-07,[],+12087673429,1222
zzy-222@5wr-pmq-ndv,160239701001,null,The Church of Jesus Christ of Latter day Saints,null,null,null,Religious Organizations,Religious Organizations,813110,null,Churches,43.633955,-113.301349,201 S Water St,Arco,ID,83213,US,null,null,2019-07,"[""lds.org""]",+12085278589,192
zzy-222@5wr-pqb-gzf,null,null,The Church of Jesus Christ of Latter day Saints,null,null,null,Religious Organizations,Religious Organizations,813110,null,Churches,43.72486,-113.365383,Arco Country Rd,Arco,ID,83213,US,null,null,2019-07,[],+12085278900,2511
zzy-222@5ws-82g-7bk,160830015002,null,The Church of Jesus Christ of Latter day Saints,null,null,null,Religious Organizations,Religious Organizations,813110,null,Churches,42.355546,-114.574252,2718 Highway 93,Twin Falls,ID,83301,US,null,null,2019-07,"[""lds.org""]",+12086554363,1030
zzy-222@5ws-gmj-s5z,160419702005,null,The Church of Jesus Christ of Latter day Saints,null,null,null,Religious Organizations,Religious Organizations,813110,null,Churches,42.015916,-111.801193,1st & Main St E,Franklin,ID,83237,US,null,null,2019-07,"[""lds.org""]",+12086462306,146
zzy-222@5ws-gmj-s5z,null,null,The Church of Jesus Christ of Latter day Saints,null,null,null,Religious Organizations,Religious Organizations,813110,null,Churches,42.015916,-111.801193,1st & Main St E,Franklin,ID,83237,US,null,null,2019-07,"[""lds.org""]",+12086462306,146
zzy-222@5ws-gmj-s5z,160419702004,null,The Church of Jesus Christ of Latter day Saints,null,null,null,Religious Organizations,Religious Organizations,813110,null,Churches,42.015916,-111.801193,1st & Main St E,Franklin,ID,83237,US,null,null,2019-07,"[""lds.org""]",+12086462306,146
zzy-222@5ws-hj6-3h5,160419701005,null,The Church of Jesus Christ of Latter day Saints,null,null,null,Religious Organizations,Religious Organizations,813110,null,Churches,42.186892,-112.009026,604 S Main Hwy,Clifton,ID,83228,US,null,null,2019-07,"[""lds.org""]",+12084253781,10823
zzy-222@5ws-hs9-mp9,160419701001,null,The Church of Jesus Christ of Latter day Saints,null,null,null,Religious Organizations,Religious Organizations,813110,null,Churches,42.228318,-111.714703,7316 N Capitol Hill Rd,Preston,ID,83263,US,null,null,2019-07,"[""lds.org""]",+12088520477,936
zzy-222@5ws-hyk-rff,160419702005,null,The Church of Jesus Christ of Latter day Saints,null,null,null,Religious Organizations,Religious Organizations,813110,null,Churches,42.012727,-111.879628,165 W 4800 S,Preston,ID,83263,US,null,null,2019-07,[],+12088520386,1613
zzy-222@5ws-j6j-9cq,160419702003,null,The Church Of Jesus Christ Of Latter Day Saints,null,null,null,Religious Organizations,Religious Organizations,813110,null,Churches,42.08496,-111.748578,5307 E Cub River Rd,Preston,ID,83263,US,null,null,2019-07,"[""lds.org""]",+12088520294,1478
zzy-222@5ws-j6s-pgk,160419701002,null,The Church of Jesus Christ of Latter day Saints,null,null,null,Religious Organizations,Religious Organizations,813110,null,Churches,42.161417,-111.837257,3562 N 1800th E,Preston,ID,83263,US,null,null,2019-07,"[""lds.org""]",+12088527164,857
zzy-222@5ws-j8j-6x5,160419701002,null,The Church of Jesus Christ of Latter day Saints,null,null,null,Religious Organizations,Religious Organizations,813110,null,Churches,42.100707,-111.871853,213 N 2nd E,Preston,ID,83263,US,null,null,2019-07,"[""lds.org""]",+12088521469,60
zzy-223@3x5-4pq-xnq,null,null,Church of Jesus Christ Latter Dy Snts Hydn 4th Wrd,null,null,null,Religious Organizations,Religious Organizations,813110,null,Churches,47.751699,-116.778661,407 E Honeysuckle Ave,Hayden,ID,83835,US,null,null,2019-07,[],+12087720910,1236
zzy-223@3x5-4qf-89z,160550018003,null,Church of Jesus Christ Latter Dy Snts Hydn 4th Wrd,null,null,null,Religious Organizations,Religious Organizations,813110,null,Churches,47.729944,-116.755851,2293 E Hanley Ave,Dalton Gardens,ID,83814,US,null,null,2019-07,[],+12086641818,143
zzy-223@3x5-8bx-28v,null,null,Church of Jesus Christ Latter Dy Snts Hydn 4th Wrd,null,null,null,Religious Organizations,Religious Organizations,813110,null,Churches,47.809478,-116.873025,15151 N Meyer Rd,Rathdrum,ID,83858,US,null,null,2019-07,[],+12086875907,1969
zzy-223@3x5-8hm-gp9,null,null,The Church of Jesus Christ of Latter day Saints,null,null,null,Religious Organizations,Religious Organizations,813110,null,Churches,48.180709,-116.909193,W Albeni Rd,Priest River,ID,83856,US,null,null,2019-07,[],+12084372474,312
zzy-223@3x5-8hm-gp9,160179505004,null,The Church of Jesus Christ of Latter day Saints,null,null,null,Religious Organizations,Religious Organizations,813110,null,Churches,48.180709,-116.909193,W Albeni Rd,Priest River,ID,83856,US,null,null,2019-07,[],+12084372474,312
zzy-223@5w8-z7x-sqz,160599702003,null,The Church of Jesus Christ of Latter day Saints,null,null,null,Religious Organizations,Religious Organizations,813110,null,Churches,45.168516,-113.885232,501 Kay St,Salmon,ID,83467,US,null,null,2019-07,"[""lds.org""]",+12087564447,183
zzy-223@5w8-z85-b6k,160599702003,null,The Church of Jesus Christ of Latter day Saints,null,null,null,Religious Organizations,Religious Organizations,813110,null,Churches,45.16086,-113.861005,91 Highway 28,Salmon,ID,83467,US,null,null,2019-07,"[""lds.org""]",+12087568844,182
zzy-223@5w8-z85-b6k,160599702003,null,The Church of Jesus Christ of Latter day Saints,null,null,null,Religious Organizations,Religious Organizations,813110,null,Churches,45.16086,-113.861005,91 Highway 28,Salmon,ID,83467,US,null,null,2019-07,"[""lds.org""]",+12087568844,182
zzy-223@5w8-z85-b6k,160599702003,null,The Church of Jesus Christ of Latter day Saints,null,null,null,Religious Organizations,Religious Organizations,813110,null,Churches,45.16086,-113.861005,91 Highway 28,Salmon,ID,83467,US,null,null,2019-07,"[""lds.org""]",+12087568844,182
zzy-223@5w8-z85-b6k,160599702003,null,The Church of Jesus Christ of Latter day Saints,null,null,null,Religious Organizations,Religious Organizations,813110,null,Churches,45.16086,-113.861005,91 Highway 28,Salmon,ID,83467,US,null,null,2019-07,"[""lds.org""]",+12087568844,182
zzy-223@5w8-z85-b6k,null,null,The Church of Jesus Christ of Latter day Saints,null,null,null,Religious Organizations,Religious Organizations,813110,null,Churches,45.16086,-113.861005,91 Highway 28,Salmon,ID,83467,US,null,null,2019-07,"[""lds.org""]",+12087568844,182
zzy-223@5w8-z85-b6k,null,null,The Church of Jesus Christ of Latter day Saints,null,null,null,Religious Organizations,Religious Organizations,813110,null,Churches,45.16086,-113.861005,91 Highway 28,Salmon,ID,83467,US,null,null,2019-07,"[""lds.org""]",+12087568844,182
zzy-223@5w8-z85-b6k,null,null,The Church of Jesus Christ of Latter day Saints,null,null,null,Religious Organizations,Religious Organizations,813110,null,Churches,45.16086,-113.861005,91 Highway 28,Salmon,ID,83467,US,null,null,2019-07,"[""lds.org""]",+12087568844,182
zzy-223@5w8-z85-b6k,null,null,The Church of Jesus Christ of Latter day Saints,null,null,null,Religious Organizations,Religious Organizations,813110,null,Churches,45.16086,-113.861005,91 Highway 28,Salmon,ID,83467,US,null,null,2019-07,"[""lds.org""]",+12087568844,182
zzy-223@5w9-hkn-k4v,160010102013,null,The Church of Jesus Christ of Latter day Saints,null,null,null,Religious Organizations,Religious Organizations,813110,null,Churches,43.687242,-116.489511,484 S Main St,Star,ID,83669,US,null,null,2019-07,"[""lds.org""]",+12082867371,1749
zzy-223@5w9-hkz-ysq,160010024134,null,The Church of Jesus Christ of Latter day Saints,null,null,null,Religious Organizations,Religious Organizations,813110,null,Churches,43.647951,-116.325124,11443 McMillan Rd,Meridian,ID,83642,US,null,null,2019-07,[],+12083760452,2738
zzy-223@5w9-hm6-vzz,160010024131,null,The Church of Jesus Christ of Latter day Saints,null,null,null,Religious Organizations,Religious Organizations,813110,null,Churches,43.634415,-116.330791,11918 W Ustick Rd,Boise,ID,83713,US,null,null,2019-07,"[""lds.org""]",+12086721093,1646
zzy-223@5w9-hmq-wrk,160010102212,null,The Church of Jesus Christ of Latter day Saints,null,null,null,Religious Organizations,Religious Organizations,813110,null,Churches,43.695925,-116.363476,Pinetop Hwy 21,Idaho City,ID,83631,US,null,null,2019-07,[],+12083924436,2058
zzy-223@5w9-j52-vxq,160010104012,null,The Church of Jesus Christ of Latter day Saints,null,null,null,Religious Organizations,Religious Organizations,813110,null,Churches,43.487668,-116.454731,3305 E Kuna Rd,Kuna,ID,83634,US,null,null,2019-07,"[""lds.org""]",+12089229164,2650
zzy-223@5w9-j73-kcq,160270207001,null,The Church of Jesus Christ of Latter day Saints,null,null,null,Religious Organizations,Religious Organizations,813110,null,Churches,43.569122,-116.512059,88 S Happy Valley Rd,Nampa,ID,83687,US,null,null,2019-07,"[""lds.org""]",+12084613082,1577
zzy-223@5w9-jb5-xwk,160010012022,null,The Church of Jesus Christ of Latter day Saints,null,null,null,Religious Organizations,Religious Organizations,813110,null,Churches,43.626234,-116.265085,6711 W Northview St,Boise,ID,83704,US,null,null,2019-07,"[""lds.org""]",+12083751331,1898
zzy-223@5w9-jbp-7wk,160010008033,null,The Church of Jesus Christ of Latter day Saints,null,null,null,Religious Organizations,Religious Organizations,813110,null,Churches,43.568263,-116.153879,2300 E Bergeson St,Boise,ID,83706,US,null,null,2019-07,"[""lds.org""]",+12083361691,1756
zzy-223@5w9-jbw-p7q,160010001001,null,The Church of Jesus Christ of Latter day Saints,null,null,null,Religious Organizations,Religious Organizations,813110,null,Churches,43.619803,-116.202036,Northview Ysa Br Ofc,Boise,ID,83702,US,null,null,2019-07,"[""lds.org""]",+12083760792,4442
zzy-223@5w9-jd3-q75,160010022221,null,The Church Of Jesus Christ Of Latter Day Saints,null,null,null,Religious Organizations,Religious Organizations,813110,null,Churches,43.551413,-116.294981,5645 S Maple Grove Rd,Boise,ID,83709,US,null,null,2019-07,"[""lds.org""]",+12083622793,1858
zzy-223@5w9-jd9-4sq,160010105031,null,The Church of Jesus Christ of Latter day Saints,null,null,null,Religious Organizations,Religious Organizations,813110,null,Churches,43.54794,-116.136217,3800 E Grand Forest Dr,Boise,ID,83716,US,null,null,2019-07,[],+12083362231,2442
zzy-223@5w9-thb-st9,null,222-222@5w9-th3-rzf,The Church of Jesus Christ of Latter day Saints,null,null,null,Religious Organizations,Religious Organizations,813110,null,Churches,44.007622,-116.916738,Atkinson,Fruitland,ID,83660,US,null,null,2019-07,"[""lds.org""]",+12087226459,182
zzy-223@5w9-thb-st9,160759603003,222-222@5w9-th3-rzf,The Church of Jesus Christ of Latter day Saints,null,null,null,Religious Organizations,Religious Organizations,813110,null,Churches,44.007622,-116.916738,Atkinson,Fruitland,ID,83660,US,null,null,2019-07,"[""lds.org""]",+12087226459,182
zzy-223@5wb-8k9-qj9,160139601003,null,The Church of Jesus Christ of Latter day Saints,null,null,null,Religious Organizations,Religious Organizations,813110,null,Churches,43.512311,-114.310671,Broadford Rd,Hailey,ID,83333,US,null,null,2019-07,[],null,1791
zzy-223@5wf-xq9-7qz,160439703006,null,The Church Of Jesus Christ Of Latter Day Saints,null,null,null,Religious Organizations,Religious Organizations,813110,null,Churches,43.942086,-111.831008,1633 E 400 N,Saint Anthony,ID,83445,US,null,null,2019-07,"[""lds.org""]",+12086247179,1733
zzy-223@5wf-y4z-j9z,160659501002,null,The Church of Jesus Christ of Latter day Saints,null,null,null,Religious Organizations,Religious Organizations,813110,null,Churches,43.870029,-111.808724,1508 W 3000 N,Rexburg,ID,83440,US,null,null,2019-07,"[""lds.org""]",+12083564003,2541
zzy-223@5wf-y5y-68v,160659505003,null,The Church of Jesus Christ of Latter day Saints,null,null,null,Religious Organizations,Religious Organizations,813110,null,Churches,43.797879,-111.856768,3958 W 2000 S,Rexburg,ID,83440,US,null,null,2019-07,[],+12083560094,1400
zzy-223@5wf-zx9-xh5,160439703003,null,The Church Of Jesus Christ Of Latter Day Saints,null,null,null,Religious Organizations,Religious Organizations,813110,null,Churches,43.915011,-111.678747,215 N 2400 E,Saint Anthony,ID,83445,US,null,null,2019-07,"[""lds.org""]",+12084584165,1733
zzy-223@5wg-3z9-h89,160199714001,null,The Church of Jesus Christ of Latter day Saints,null,null,null,Religious Organizations,Religious Organizations,813110,null,Churches,43.481936,-112.07782,2345 W 17th S,Idaho Falls,ID,83402,US,null,null,2019-07,"[""lds.org""]",+12085292639,1604
zzy-223@5wg-422-h89,160199713015,null,The Church of Jesus Christ of Latter day Saints,null,null,null,Religious Organizations,Religious Organizations,813110,null,Churches,43.508088,-112.086916,1345 Clarence Dr,Idaho Falls,ID,83402,US,null,null,2019-07,[],+12085524673,1706
zzy-223@5wg-426-4n5,160199706023,null,The Church of Jesus Christ of Latter day Saints,null,null,null,Religious Organizations,Religious Organizations,813110,null,Churches,43.486377,-112.000554,1660 12th St,Idaho Falls,ID,83404,US,null,null,2019-07,[],+12085220888,2165
zzy-223@5wg-427-v75,160199709001,null,The Church of Jesus Christ of Latter day Saints,null,null,null,Religious Organizations,Religious Organizations,813110,null,Churches,43.486536,-112.011617,1235 Juniper Dr,Idaho Falls,ID,83404,US,null,null,2019-07,"[""lds.org""]",+12085232265,1200
zzy-223@5wg-42k-2zf,160199704011,null,The Church of Jesus Christ of Latter day Saints,null,null,null,Religious Organizations,Religious Organizations,813110,null,Churches,43.526234,-112.042186,3370 N 5th W,Idaho Falls,ID,83401,US,null,null,2019-07,"[""lds.org""]",+12085235750,1723
zzy-223@5wg-59q-tn5,160519604001,null,The Church of Jesus Christ of Latter day Saints,null,null,null,Religious Organizations,Religious Organizations,813110,null,Churches,43.629517,-111.775192,210 W Hewitt,Ririe,ID,83443,US,null,null,2019-07,"[""lds.org""]",+12085387858,299
zzy-223@5wg-5f9-x5z,null,null,The Church of Jesus Christ of Latter day Saints,null,null,null,Religious Organizations,Religious Organizations,813110,null,Churches,43.672374,-111.915158,W Of Rigby,Rigby,ID,83442,US,null,null,2019-07,"[""lds.org""]",+12087458124,335
zzy-223@5wg-5wx-2hq,160199704022,null,The Church of Jesus Christ of Latter day Saints,null,null,null,Religious Organizations,Religious Organizations,813110,null,Churches,43.523673,-111.930687,5169 Denning Ave,Iona,ID,83427,US,null,null,2019-07,"[""lds.org""]",+12085224307,1780
zzy-223@5wq-s6z-2kz,160319505003,null,The Church of Jesus Christ of Latter day Saints,null,null,null,Religious Organizations,Religious Organizations,813110,null,Churches,42.475533,-113.824047,160 W 400 S,Burley,ID,83318,US,null,null,2019-07,"[""lds.org""]",+12086782000,1661
zzy-223@5wq-xc7-n5z,160319506002,null,The Church Of Jesus Christ Of Latter Day Saints,null,null,null,Religious Organizations,Religious Organizations,813110,null,Churches,42.246916,-113.883282,355 N Center St,Oakley,ID,83346,US,null,null,2019-07,"[""lds.org""]",+12088623314,1945
zzy-223@5wr-bb5-ffz,160119505004,null,The Church of Jesus Christ of Latter day Saints,null,null,null,Religious Organizations,Religious Organizations,813110,null,Churches,43.153146,-112.436071,701 W 300 S,Blackfoot,ID,83221,US,null,null,2019-07,"[""lds.org""]",+12087850867,1269
zzy-223@5wr-dg7-j35,160119502003,null,The Church of Jesus Christ of Latter day Saints,null,null,null,Religious Organizations,Religious Organizations,813110,null,Churches,43.306574,-112.186306,Mitchell Ln,Firth,ID,83221,US,null,null,2019-07,"[""lds.org""]",+12087855022,363
zzy-223@5wr-dn3-fcq,160199701002,null,The Church of Jesus Christ of Latter day Saints,null,null,null,Religious Organizations,Religious Organizations,813110,null,Churches,43.432494,-111.943339,7118 Ledge Rock,Idaho Falls,ID,83406,US,null,null,2019-07,"[""lds.org""]",null,1725
zzy-223@5wr-gfw-rtv,160050010002,null,The Church of Jesus Christ of Latter day Saints,null,null,null,Religious Organizations,Religious Organizations,813110,null,Churches,42.882734,-112.440924,954 E Walnut St,Pocatello,ID,83201,US,null,null,2019-07,"[""lds.org""]",+12082328611,1383
zzy-223@5wr-gfx-5s5,160050010001,null,The Church of Jesus Christ of Latter day Saints,null,null,null,Religious Organizations,Religious Organizations,813110,null,Churches,42.885006,-112.43554,1440 Lakeview Dr,Pocatello,ID,83201,US,null,null,2019-07,"[""lds.org""]",+12082320978,1740
zzy-223@5wr-gjh-whq,160050008001,null,The Church of Jesus Christ of Latter day Saints,null,null,null,Religious Organizations,Religious Organizations,813110,null,Churches,42.852149,-112.428738,4th & Fredregill Rd,Pocatello,ID,83201,US,null,null,2019-07,[],+12082324121,1236
zzy-223@5wr-gjh-whq,null,null,The Church of Jesus Christ of Latter day Saints,null,null,null,Religious Organizations,Religious Organizations,813110,null,Churches,42.852149,-112.428738,4th & Fredregill Rd,Pocatello,ID,83201,US,null,null,2019-07,[],+12082324121,1236
zzy-223@5wr-pqb-gzf,null,null,The Church of Jesus Christ of Latter day Saints,null,null,null,Religious Organizations,Religious Organizations,813110,null,Churches,43.724858,-113.365402,Moore,Moore,ID,83255,US,null,null,2019-07,[],+12085542015,2511
zzy-223@5ws-fq9-gc5,null,null,The Church of Jesus Christ of Latter day Saints,null,null,null,Religious Organizations,Religious Organizations,813110,null,Churches,42.162359,-112.654075,1346 S 20900 W,Holbrook,ID,83243,US,null,null,2019-07,[],+12086983581,375
zzy-223@5ws-hyw-3qz,null,null,Church of Jesus Christ of Latter Dy Snts the Cnt'd,null,null,null,Religious Organizations,Religious Organizations,813110,null,Churches,42.094766,-111.874923,55 N 1st E,Preston,ID,83263,US,null,null,2019-07,[],+12087473237,2599
zzy-224@5qn-rf3-td9,null,null,null,null,null,null,null,null,null,null,null,null,null,null,null,null,null,null,null,null,null,null,null,null
zzy-224@5qn-rf3-td9,null,null,null,null,null,null,null,null,null,null,null,null,null,null,null,null,null,null,null,null,null,null,null,null
zzy-224@5w9-pmv-8jv,160399604002,null,The Church of Jesus Christ of Latter day Saints,null,null,null,Religious Organizations,Religious Organizations,813110,null,Churches,43.083144,-115.855231,14423 Airbase Rd,Mountain Home,ID,83647,US,null,null,2019-07,[],+12088324211,2055
zzy-224@5w9-pmv-8jv,null,null,The Church of Jesus Christ of Latter day Saints,null,null,null,Religious Organizations,Religious Organizations,813110,null,Churches,43.083144,-115.855231,14423 Airbase Rd,Mountain Home,ID,83647,US,null,null,2019-07,[],+12088324211,2055
zzy-224@5wg-ck4-kpv,160379602004,null,The Church of Jesus Christ of Latter day Saints,null,null,null,Religious Organizations,Religious Organizations,813110,null,Churches,43.90876,-113.607171,531 Spruce St,Mackay,ID,83251,US,null,null,2019-07,"[""lds.org""]",+12085882635,956
zzy-224@5wr-dg7-j35,160119502003,null,The Church of Jesus Christ of Latter day Saints,null,null,null,Religious Organizations,Religious Organizations,813110,null,Churches,43.306611,-112.186328,252 W Center St,Firth,ID,83236,US,null,null,2019-07,[],+12083466111,388
zzy-225@5w8-crv-d7q,160859701001,null,The Church of Jesus Christ of Latter day Saints,null,null,null,Religious Organizations,Religious Organizations,813110,null,Churches,44.520698,-116.045287,560 N Highway 55,Cascade,ID,83611,US,null,null,2019-07,[],+12083823230,980
zzy-225@5w9-hnr-8gk,160010103221,null,The Church of Jesus Christ of Latter day Saints,null,null,null,Religious Organizations,Religious Organizations,813110,null,Churches,43.618626,-116.396585,1615 NW 2nd St,Meridian,ID,83642,US,null,null,2019-07,"[""lds.org""]",+12088884066,1362
zzy-225@5wb-8gh-z2k,160139603001,null,The Church of Jesus Christ of Latter day Saints,null,null,null,Religious Organizations,Religious Organizations,813110,null,Churches,43.683928,-114.36053,300 Spruce Ave,Sun Valley,ID,83340,US,null,null,2019-07,[],+12087265984,1028
zzy-225@5wb-8gh-z2k,160139603001,null,The Church of Jesus Christ of Latter day Saints,null,null,null,Religious Organizations,Religious Organizations,813110,null,Churches,43.683928,-114.36053,300 Spruce Ave,Sun Valley,ID,83340,US,null,null,2019-07,[],+12087265984,1028
zzy-225@5wb-8gh-z2k,null,null,The Church of Jesus Christ of Latter day Saints,null,null,null,Religious Organizations,Religious Organizations,813110,null,Churches,43.683928,-114.36053,300 Spruce Ave,Sun Valley,ID,83340,US,null,null,2019-07,[],+12087265984,1028
zzy-225@5wb-8gh-z2k,null,null,The Church of Jesus Christ of Latter day Saints,null,null,null,Religious Organizations,Religious Organizations,813110,null,Churches,43.683928,-114.36053,300 Spruce Ave,Sun Valley,ID,83340,US,null,null,2019-07,[],+12087265984,1028
